{"Lewis Street": {"highway": "residential", "oneway": "yes", "name": null, "bicycle": null, "lanes": null, "maxspeed": "25 mph"}, "Pike Street": {"highway": "primary", "oneway": "yes", "name": null, "bicycle": "yes", "lanes": null, "maxspeed": "25 mph"}, "East 23rd Street": {"highway": "residential", "oneway": "yes", "name": null, "lanes": "1", "bicycle": null, "maxspeed": null}, "Centre Market Place": {"highway": "residential", "oneway": "yes", "name": null, "bicycle": null, "lanes": null, "maxspeed": "25 mph"}, "Montgomery Street": {"highway": "residential", "oneway": "yes", "name": null, "bicycle": null, "lanes": null, "maxspeed": "25 mph"}, "Wythe Avenue": {"highway": "residential", "oneway": "yes", "name": null, "bicycle": "yes", "lanes": null, "maxspeed": null}, "Schermerhorn Street": {"highway": "residential", "oneway": "yes", "name": null, "bicycle": "yes", "lanes": null, "maxspeed": null}, "Pell Street": {"highway": "residential", "oneway": "yes", "name": null, "bicycle": null, "lanes": null, "maxspeed": "25 mph"}, "Saint Mark's Place": {"highway": "residential", "oneway": "yes", "name": null, "bicycle": null, "lanes": null, "maxspeed": "20 mph"}, "Plaza Street West": {"highway": "residential", "oneway": "yes", "name": null, "bicycle": "yes", "lanes": null, "maxspeed": null}, "Ash Street": {"highway": "secondary", "oneway": "yes", "name": null, "bicycle": "yes", "lanes": null, "maxspeed": null}, "Kane Street": {"highway": "residential", "oneway": "yes", "name": null, "bicycle": "yes", "lanes": null, "maxspeed": null}, "Weehawken Street": {"highway": "unclassified", "oneway": "yes", "name": null, "bicycle": null, "lanes": null, "maxspeed": "25 mph"}, "East 78th Street": {"highway": "residential", "oneway": "yes", "name": null, "lanes": "1", "bicycle": null, "maxspeed": null}, "Moultrie Street": {"highway": "residential", "oneway": "yes", "name": null, "bicycle": null, "lanes": null, "maxspeed": "25 mph"}, "Battery Place": {"highway": "primary", "oneway": "yes", "name": null, "bicycle": null, "lanes": null, "maxspeed": "25 mph"}, "Fulton Street": {"highway": "unclassified", "oneway": "yes", "name": null, "bicycle": null, "lanes": null, "maxspeed": "25 mph"}, "The Bowery": {"highway": "primary", "oneway": "yes", "name": null, "bicycle": "designated", "lanes": null, "maxspeed": "25 mph"}, "South 5th Place": {"highway": "residential", "oneway": "yes", "name": null, "bicycle": "yes", "lanes": null, "maxspeed": null}, "Williamsburg Street West": {"highway": "secondary", "oneway": "yes", "name": null, "bicycle": null, "lanes": null, "maxspeed": "25 mph"}, "Pearl Street": {"highway": "residential", "oneway": "yes", "name": null, "bicycle": null, "lanes": null, "maxspeed": "25 mph"}, "Jersey Avenue": {"highway": "secondary", "oneway": "yes", "name": null, "lanes": "3", "bicycle": null, "maxspeed": null}, "Baruch Place": {"highway": "residential", "oneway": "yes", "name": null, "bicycle": null, "lanes": null, "maxspeed": "25 mph"}, "Elizabeth Street": {"highway": "residential", "oneway": "yes", "name": null, "bicycle": null, "lanes": null, "maxspeed": "25 mph"}, "Peter Cooper Road": {"highway": "residential", "oneway": "yes", "name": null, "bicycle": null, "lanes": null, "maxspeed": "25 mph"}, "Jackie Robinson Parkway": {"highway": "motorway", "oneway": "yes", "name": null, "lanes": "2", "bicycle": null, "maxspeed": null}, "Brooklyn Queens Expressway": {"highway": "motorway", "oneway": "yes", "name": null, "bicycle": "no", "lanes": "3", "maxspeed": "45 mph"}, "Cliff Street": {"highway": "residential", "oneway": "yes", "name": null, "bicycle": null, "lanes": null, "maxspeed": "25 mph"}, "Columbia Street Esplanade": {"highway": "cycleway", "oneway": null, "name": null, "bicycle": "yes", "lanes": "2", "maxspeed": null}, "Bedford Avenue": {"highway": "secondary", "oneway": "yes", "name": null, "bicycle": "yes", "lanes": null, "maxspeed": null}, "Joseph P. Ward Street": {"highway": "residential", "oneway": "yes", "name": null, "bicycle": null, "lanes": null, "maxspeed": "25 mph"}, "East 3rd Street": {"highway": "residential", "oneway": "yes", "name": null, "bicycle": null, "lanes": null, "maxspeed": "20 mph"}, "Renwick Street": {"highway": "residential", "oneway": "yes", "name": null, "bicycle": null, "lanes": null, "maxspeed": "25 mph"}, "Bialystoker Place": {"highway": "residential", "oneway": "yes", "name": null, "bicycle": null, "lanes": null, "maxspeed": "25 mph"}, "Henry Street": {"highway": "residential", "oneway": "yes", "name": null, "bicycle": null, "lanes": null, "maxspeed": "25 mph"}, "Eastern Parkway Bike Path": {"highway": "cycleway", "oneway": "no", "name": null, "bicycle": "yes", "lanes": null, "maxspeed": null}, "Belt Parkway": {"highway": "motorway", "oneway": "yes", "name": null, "lanes": "3", "bicycle": null, "maxspeed": null}, "Gates Avenue": {"highway": "residential", "oneway": "yes", "name": null, "bicycle": null, "lanes": null, "maxspeed": "25 mph"}, "Woodhaven Boulevard": {"highway": "trunk", "oneway": "yes", "name": null, "bicycle": "yes", "lanes": "3", "maxspeed": "35 mph"}, "Van Wyck Expressway": {"highway": "motorway", "oneway": "yes", "name": null, "bicycle": "no", "lanes": "2", "maxspeed": null}, "Garden Street": {"highway": "unclassified", "oneway": "yes", "name": null, "bicycle": null, "lanes": null, "maxspeed": "30"}, "Nostrand Avenue": {"highway": "secondary", "oneway": "no", "name": null, "lanes": "4", "bicycle": null, "maxspeed": null}, "Hudson River Greenway": {"highway": "cycleway", "oneway": null, "name": null, "bicycle": "yes", "lanes": "2", "maxspeed": null}, "Walton Street": {"highway": "residential", "oneway": "yes", "name": null, "bicycle": null, "lanes": null, "maxspeed": "25 mph"}, "Cross Bay Bridge": {"highway": "trunk", "oneway": "yes", "name": null, "lanes": "1", "bicycle": null, "maxspeed": null}, "East Broadway": {"highway": "secondary", "oneway": "no", "name": null, "bicycle": "yes", "lanes": null, "maxspeed": "25 mph"}, "Sterling Place": {"highway": "residential", "oneway": "yes", "name": null, "bicycle": null, "lanes": null, "maxspeed": "25 mph"}, "East 7th Street": {"highway": "residential", "oneway": "yes", "name": null, "lanes": "1", "bicycle": null, "maxspeed": "25 mph"}, "Caton Avenue": {"highway": "secondary", "oneway": "no", "name": null, "bicycle": "yes", "lanes": null, "maxspeed": null}, "Franklin Street": {"highway": "residential", "oneway": "yes", "name": null, "bicycle": null, "lanes": null, "maxspeed": "25 mph"}, "Prospect Park Circle Exit": {"highway": "cycleway", "oneway": "yes", "name": null, "bicycle": "yes", "lanes": null, "maxspeed": null}, "Leonard Street": {"highway": "residential", "oneway": "yes", "name": null, "bicycle": "yes", "lanes": null, "maxspeed": "25 mph"}, "Meadow Lake West Road": {"highway": "residential", "oneway": "yes", "name": null, "bicycle": "designated", "lanes": null, "maxspeed": null}, "Van Siclen Avenue": {"highway": "tertiary", "oneway": "no", "name": null, "lanes": "2", "bicycle": null, "maxspeed": null}, "Manhattan Bridge": {"highway": "primary", "oneway": "yes", "name": null, "bicycle": "no", "lanes": null, "maxspeed": "35 mph"}, "Poly Place": {"highway": "secondary", "oneway": "no", "name": null, "bicycle": "yes", "lanes": null, "maxspeed": null}, "Bergen Street": {"highway": "residential", "oneway": "yes", "name": null, "bicycle": "yes", "lanes": null, "maxspeed": null}, "Platt Street": {"highway": "unclassified", "oneway": "yes", "name": null, "bicycle": null, "lanes": null, "maxspeed": "25 mph"}, "Ocean Parkway": {"highway": "residential", "oneway": "-1", "name": null, "lanes": "1", "bicycle": null, "maxspeed": null}, "Banker Street": {"highway": "residential", "oneway": "yes", "name": null, "bicycle": "yes", "lanes": null, "maxspeed": null}, "Degraw Street": {"highway": "residential", "oneway": "yes", "name": null, "bicycle": "yes", "lanes": null, "maxspeed": null}, "Crosby Street": {"highway": "residential", "oneway": "yes", "name": null, "bicycle": null, "lanes": null, "maxspeed": "25 mph"}, "Greenwich Street": {"highway": "residential", "oneway": "yes", "name": null, "bicycle": null, "lanes": null, "maxspeed": "25 mph"}, "Whipple Street": {"highway": "residential", "oneway": "yes", "name": null, "bicycle": "designated", "lanes": null, "maxspeed": null}, "Ridge Street": {"highway": "residential", "oneway": "yes", "name": null, "bicycle": null, "lanes": null, "maxspeed": "25 mph"}, "Horatio Street": {"highway": "unclassified", "oneway": "yes", "name": null, "bicycle": null, "lanes": null, "maxspeed": "25 mph"}, "West 12th Street": {"highway": "unclassified", "oneway": "yes", "name": null, "bicycle": null, "lanes": null, "maxspeed": "25 mph"}, "3rd Avenue": {"highway": "secondary", "oneway": "no", "name": null, "bicycle": "yes", "lanes": null, "maxspeed": null}, "Holland Tunnel exit": {"highway": "motorway", "oneway": "yes", "name": null, "bicycle": "no", "lanes": "3", "maxspeed": "35 mph"}, "East Houston Street": {"highway": "primary", "oneway": "yes", "name": null, "bicycle": "yes", "lanes": null, "maxspeed": "25 mph"}, "Gramercy Park East": {"highway": "residential", "oneway": "yes", "name": null, "bicycle": null, "lanes": null, "maxspeed": "25 mph"}, "Sheriff Street": {"highway": "residential", "oneway": "yes", "name": null, "bicycle": null, "lanes": null, "maxspeed": "25 mph"}, "Kings Highway": {"highway": "primary", "oneway": "no", "name": null, "lanes": "4", "bicycle": null, "maxspeed": null}, "Malcolm X Boulevard": {"highway": "residential", "oneway": "no", "name": null, "bicycle": "yes", "lanes": null, "maxspeed": null}, "Jane Street": {"highway": "unclassified", "oneway": "yes", "name": null, "bicycle": null, "lanes": null, "maxspeed": "25 mph"}, "12th Street": {"highway": "trunk", "oneway": "yes", "name": null, "bicycle": "yes", "lanes": "6", "maxspeed": null}, "Laight Street": {"highway": "primary", "oneway": "yes", "name": null, "bicycle": null, "lanes": null, "maxspeed": "25 mph"}, "Center Drive": {"highway": "cycleway", "oneway": "yes", "name": null, "bicycle": "yes", "lanes": null, "maxspeed": null}, "Erskine Street": {"highway": "secondary", "oneway": "yes", "name": null, "bicycle": "yes", "lanes": null, "maxspeed": null}, "Hoover Avenue": {"highway": "residential", "oneway": "yes", "name": null, "bicycle": "yes", "lanes": null, "maxspeed": null}, "Charlton Street": {"highway": "residential", "oneway": "yes", "name": null, "bicycle": "yes", "lanes": null, "maxspeed": "25 mph"}, "Perry Street": {"highway": "unclassified", "oneway": "yes", "name": null, "bicycle": null, "lanes": null, "maxspeed": "25 mph"}, "Jones Street": {"highway": "unclassified", "oneway": "yes", "name": null, "bicycle": null, "lanes": null, "maxspeed": "25 mph"}, "Holland Tunnel": {"highway": "motorway", "oneway": "yes", "name": null, "bicycle": "no", "lanes": "2", "maxspeed": "35 mph"}, "Norman Avenue": {"highway": "residential", "oneway": "no", "name": null, "bicycle": null, "lanes": null, "maxspeed": "25 mph"}, "Gramercy Park West": {"highway": "residential", "oneway": "yes", "name": null, "bicycle": null, "lanes": null, "maxspeed": "25 mph"}, "Sheepshead Bay Road": {"highway": "residential", "oneway": "yes", "name": null, "lanes": "2", "bicycle": null, "maxspeed": null}, "Boerum Place": {"highway": "primary", "oneway": "yes", "name": null, "bicycle": "yes", "lanes": null, "maxspeed": null}, "West 9th Street": {"highway": "secondary", "oneway": "yes", "name": null, "bicycle": "yes", "lanes": null, "maxspeed": null}, "Plymouth Street": {"highway": "residential", "oneway": "yes", "name": null, "lanes": "1", "bicycle": null, "maxspeed": null}, "Conduit Boulevard": {"highway": "trunk", "oneway": "yes", "name": null, "lanes": "3", "bicycle": null, "maxspeed": null}, "Smith Street": {"highway": "secondary", "oneway": "yes", "name": null, "bicycle": "yes", "lanes": null, "maxspeed": null}, "Sutter Avenue": {"highway": "tertiary", "oneway": "no", "name": null, "lanes": "2", "bicycle": null, "maxspeed": null}, "Brooklyn Bridge": {"highway": "motorway", "oneway": "yes", "name": null, "lanes": "2", "bicycle": null, "maxspeed": "30 mph"}, "Bridge Street": {"highway": "unclassified", "oneway": "yes", "name": null, "lanes": "1", "bicycle": null, "maxspeed": "25 mph"}, "University Place": {"highway": "residential", "oneway": "yes", "name": null, "bicycle": null, "lanes": null, "maxspeed": "25 mph"}, "Sackett Street": {"highway": "residential", "oneway": "no", "name": null, "bicycle": null, "lanes": null, "maxspeed": "25 mph"}, "Borinquen Place": {"highway": "primary", "oneway": "yes", "name": null, "bicycle": "yes", "lanes": null, "maxspeed": null}, "Manila Avenue": {"highway": "tertiary", "oneway": "yes", "name": null, "lanes": "1", "bicycle": null, "maxspeed": null}, "Elk Street": {"highway": "residential", "oneway": "yes", "name": null, "bicycle": null, "lanes": null, "maxspeed": "25 mph"}, "New Lots Avenue": {"highway": "tertiary", "oneway": "no", "name": null, "lanes": "2", "bicycle": null, "maxspeed": null}, "Tompkins Avenue": {"highway": "residential", "oneway": "yes", "name": null, "bicycle": "yes", "lanes": null, "maxspeed": null}, "71st Place": {"highway": "residential", "oneway": "no", "name": null, "lanes": "2", "bicycle": null, "maxspeed": null}, "Barclay Street": {"highway": "secondary", "oneway": "yes", "name": null, "lanes": "1", "bicycle": null, "maxspeed": "25 mph"}, "William Street": {"highway": "unclassified", "oneway": "yes", "name": null, "bicycle": null, "lanes": null, "maxspeed": "25 mph"}, "Manhattan Bridge lower level": {"highway": "primary", "oneway": "yes", "name": null, "bicycle": null, "lanes": null, "maxspeed": "35 mph"}, "New Jersey Turnpike Newark Bay Extension": {"highway": "motorway", "oneway": "yes", "name": null, "bicycle": "no", "lanes": "5", "maxspeed": null}, "12th Street Viaduct": {"highway": "motorway", "oneway": "yes", "name": null, "lanes": "3", "bicycle": null, "maxspeed": null}, "Van Brunt Street": {"highway": "secondary", "oneway": "no", "name": null, "bicycle": null, "lanes": null, "maxspeed": "25 mph"}, "Ericsson PI": {"highway": "motorway_link", "oneway": "yes", "name": null, "bicycle": null, "lanes": null, "maxspeed": "25 mph"}, "Vandam Street": {"highway": "residential", "oneway": "yes", "name": null, "lanes": "1", "bicycle": null, "maxspeed": "25 mph"}, "South Conduit Avenue": {"highway": "trunk", "oneway": "yes", "name": null, "lanes": "3", "bicycle": null, "maxspeed": null}, "Division Street": {"highway": "secondary", "oneway": "yes", "name": null, "bicycle": null, "lanes": null, "maxspeed": "25 mph"}, "Doyers Street": {"highway": "residential", "oneway": "yes", "name": null, "bicycle": null, "lanes": null, "maxspeed": "25 mph"}, "Wall Street": {"highway": "residential", "oneway": "yes", "name": null, "bicycle": null, "lanes": null, "maxspeed": "25 mph"}, "Desbrosses Street": {"highway": "residential", "oneway": "yes", "name": null, "bicycle": null, "lanes": null, "maxspeed": "25 mph"}, "Maple Street": {"highway": "residential", "oneway": "yes", "name": null, "bicycle": "yes", "lanes": null, "maxspeed": null}, "HIghland Park Greenway": {"highway": "cycleway", "oneway": null, "name": null, "bicycle": "yes", "lanes": "2", "maxspeed": null}, "6th Avenue": {"highway": "primary", "oneway": "yes", "name": null, "bicycle": null, "lanes": null, "maxspeed": "25 mph"}, "Vezzetti Way": {"highway": "cycleway", "oneway": "no", "name": null, "bicycle": "designated", "lanes": null, "maxspeed": null}, "South 5th Street": {"highway": "residential", "oneway": "yes", "name": null, "bicycle": "yes", "lanes": null, "maxspeed": null}, "Vanderbilt Avenue": {"highway": "secondary", "oneway": "yes", "name": null, "lanes": "2", "bicycle": null, "maxspeed": null}, "East 4th Street": {"highway": "residential", "oneway": "yes", "name": null, "bicycle": null, "lanes": null, "maxspeed": "20 mph"}, "Washington Street": {"highway": "residential", "oneway": "yes", "name": null, "bicycle": null, "lanes": null, "maxspeed": "25 mph"}, "Frankfort Street": {"highway": "secondary", "oneway": "yes", "name": null, "bicycle": null, "lanes": null, "maxspeed": "25 mph"}, "West 13th Street": {"highway": "unclassified", "oneway": "yes", "name": null, "bicycle": null, "lanes": null, "maxspeed": "25 mph"}, "Hubert Street": {"highway": "residential", "oneway": "yes", "name": null, "bicycle": null, "lanes": null, "maxspeed": "25 mph"}, "Lincoln Road": {"highway": "residential", "oneway": "yes", "name": null, "bicycle": "yes", "lanes": null, "maxspeed": null}, "Mott Street": {"highway": "residential", "oneway": "yes", "name": null, "bicycle": null, "lanes": null, "maxspeed": "25 mph"}, "Rockaway Parkway": {"highway": "residential", "oneway": "yes", "name": null, "bicycle": null, "lanes": null, "maxspeed": "25 mph"}, "Forest Park Drive": {"highway": "residential", "oneway": "no", "name": null, "bicycle": "yes", "lanes": null, "maxspeed": null}, "Gerritsen Avenue": {"highway": "secondary", "oneway": "no", "name": null, "bicycle": "yes", "lanes": "4", "maxspeed": null}, "Gramercy Park North": {"highway": "residential", "oneway": "yes", "name": null, "bicycle": null, "lanes": null, "maxspeed": "25 mph"}, "Newel Street": {"highway": "residential", "oneway": "yes", "name": null, "bicycle": null, "lanes": null, "maxspeed": "25 mph"}, "Freeport Loop": {"highway": "residential", "oneway": "yes", "name": null, "bicycle": null, "lanes": null, "maxspeed": "15 mph"}, "Indiana Avenue": {"highway": "residential", "oneway": "no", "name": null, "lanes": "2", "bicycle": null, "maxspeed": null}, "69th Road": {"highway": "secondary", "oneway": "yes", "name": null, "bicycle": "yes", "lanes": null, "maxspeed": null}, "Norfolk Street": {"highway": "residential", "oneway": "yes", "name": null, "bicycle": null, "lanes": null, "maxspeed": "25 mph"}, "Bartel Pritchard Square": {"highway": "residential", "oneway": null, "name": null, "bicycle": "designated", "lanes": "3", "maxspeed": "25 mph"}, "Lefferts Boulevard": {"highway": "secondary", "oneway": "no", "name": null, "lanes": "5", "bicycle": null, "maxspeed": null}, "Abraham Kazan Street": {"highway": "residential", "oneway": "yes", "name": null, "bicycle": null, "lanes": null, "maxspeed": "25 mph"}, "Saint Lukes Place": {"highway": "residential", "oneway": "yes", "name": null, "bicycle": null, "lanes": null, "maxspeed": "20 mph"}, "Sumner Place": {"highway": "residential", "oneway": "yes", "name": null, "bicycle": null, "lanes": null, "maxspeed": "25 mph"}, "North Cove": {"highway": "cycleway", "oneway": null, "name": null, "bicycle": "yes", "lanes": "2", "maxspeed": null}, "5th Avenue": {"highway": "tertiary", "oneway": "no", "name": null, "bicycle": "yes", "lanes": null, "maxspeed": null}, "Albert Road": {"highway": "residential", "oneway": "yes", "name": null, "lanes": "2", "bicycle": null, "maxspeed": null}, "Coney Island Avenue": {"highway": "secondary", "oneway": "no", "name": null, "lanes": "4", "bicycle": null, "maxspeed": null}, "Gouverneur Street": {"highway": "residential", "oneway": "yes", "name": null, "bicycle": null, "lanes": null, "maxspeed": "25 mph"}, "West 18th Street": {"highway": "unclassified", "oneway": "yes", "name": null, "bicycle": null, "lanes": null, "maxspeed": "25 mph"}, "Freeman Street": {"highway": "residential", "oneway": "yes", "name": null, "bicycle": "yes", "lanes": null, "maxspeed": null}, "Rutgers Street": {"highway": "residential", "oneway": "yes", "name": null, "bicycle": null, "lanes": null, "maxspeed": "25 mph"}, "Mercer Street": {"highway": "residential", "oneway": "yes", "name": null, "bicycle": null, "lanes": null, "maxspeed": "25 mph"}, "East 27th Street": {"highway": "residential", "oneway": "yes", "name": null, "lanes": "1", "bicycle": null, "maxspeed": null}, "Saint Johns Place": {"highway": "residential", "oneway": "no", "name": null, "bicycle": null, "lanes": null, "maxspeed": "25 mph"}, "Classon Avenue": {"highway": "secondary", "oneway": "yes", "name": null, "lanes": "1", "bicycle": null, "maxspeed": "25 mph"}, "Washington Park": {"highway": "residential", "oneway": "yes", "name": null, "bicycle": "yes", "lanes": null, "maxspeed": null}, "Grand Street": {"highway": "residential", "oneway": "yes", "name": null, "bicycle": "yes", "lanes": null, "maxspeed": "25 mph"}, "Rutgers Slip": {"highway": "residential", "oneway": "yes", "name": null, "bicycle": null, "lanes": null, "maxspeed": "25 mph"}, "Minetta Street": {"highway": "residential", "oneway": "yes", "name": null, "bicycle": null, "lanes": null, "maxspeed": "25 mph"}, "20th Street Loop": {"highway": "residential", "oneway": "yes", "name": null, "bicycle": null, "lanes": null, "maxspeed": "25 mph"}, "8th Avenue": {"highway": "secondary", "oneway": "yes", "name": null, "lanes": "2", "bicycle": null, "maxspeed": "25 mph"}, "Charles Street": {"highway": "unclassified", "oneway": "yes", "name": null, "bicycle": null, "lanes": null, "maxspeed": "25 mph"}, "Cherry Street": {"highway": "residential", "oneway": "yes", "name": null, "bicycle": null, "lanes": null, "maxspeed": "25 mph"}, "Clinton Street": {"highway": "residential", "oneway": null, "name": null, "bicycle": "yes", "lanes": null, "maxspeed": "25 mph"}, "82nd Avenue": {"highway": "residential", "oneway": "yes", "name": null, "bicycle": "yes", "lanes": null, "maxspeed": null}, "159th Avenue": {"highway": "residential", "oneway": "yes", "name": null, "bicycle": "yes", "lanes": null, "maxspeed": null}, "Jersey Street": {"highway": "residential", "oneway": "yes", "name": null, "bicycle": null, "lanes": null, "maxspeed": "25 mph"}, "Church Street": {"highway": "secondary", "oneway": "yes", "name": null, "bicycle": null, "lanes": null, "maxspeed": "25 mph"}, "Navy Street": {"highway": "residential", "oneway": "no", "name": null, "bicycle": "yes", "lanes": null, "maxspeed": "25 mph"}, "Neptune Avenue": {"highway": "secondary", "oneway": null, "name": null, "bicycle": "yes", "lanes": "4", "maxspeed": null}, "12th Avenue": {"highway": "residential", "oneway": "no", "name": null, "bicycle": "yes", "lanes": null, "maxspeed": null}, "Washington Avenue": {"highway": "secondary", "oneway": "no", "name": null, "bicycle": "yes", "lanes": null, "maxspeed": null}, "Avenue C": {"highway": "primary", "oneway": "no", "name": null, "bicycle": null, "lanes": null, "maxspeed": "25 mph"}, "Park Avenue South": {"highway": "secondary", "oneway": "yes", "name": null, "bicycle": null, "lanes": null, "maxspeed": "25 mph"}, "Coolidge Avenue": {"highway": "residential", "oneway": "yes", "name": null, "bicycle": "yes", "lanes": null, "maxspeed": null}, "DeKalb Avenue": {"highway": "secondary", "oneway": "yes", "name": null, "bicycle": "yes", "lanes": null, "maxspeed": null}, "Shell Road": {"highway": "secondary", "oneway": "yes", "name": null, "lanes": "3", "bicycle": null, "maxspeed": null}, "Verrazano-Narrows Bridge": {"highway": "motorway", "oneway": "yes", "name": null, "bicycle": "no", "lanes": "3", "maxspeed": "45 mph"}, "73rd Place": {"highway": "tertiary", "oneway": "no", "name": null, "lanes": "2", "bicycle": null, "maxspeed": null}, "Szold Place": {"highway": "residential", "oneway": "yes", "name": null, "bicycle": null, "lanes": null, "maxspeed": "20 mph"}, "Forest Park Greenway": {"highway": "cycleway", "oneway": null, "name": null, "bicycle": "yes", "lanes": "2", "maxspeed": null}, "Wanamaker Place": {"highway": "residential", "oneway": "yes", "name": null, "bicycle": "yes", "lanes": null, "maxspeed": "25 mph"}, "Atlantic Avenue": {"highway": "residential", "oneway": "no", "name": null, "lanes": "3", "bicycle": null, "maxspeed": null}, "Jewel Street": {"highway": "residential", "oneway": "yes", "name": null, "bicycle": null, "lanes": null, "maxspeed": "25 mph"}, "McGuinness Boulevard": {"highway": "primary", "oneway": "yes", "name": null, "bicycle": null, "lanes": null, "maxspeed": "25 mph"}, "Dey Street": {"highway": "unclassified", "oneway": "yes", "name": null, "bicycle": null, "lanes": null, "maxspeed": "25 mph"}, "Ocean Parkway Bike Path": {"highway": "cycleway", "oneway": "no", "name": null, "bicycle": "yes", "lanes": null, "maxspeed": null}, "Avenue P": {"highway": "primary", "oneway": "no", "name": null, "lanes": "4", "bicycle": null, "maxspeed": null}, "East 25th Street": {"highway": "unclassified", "oneway": "yes", "name": null, "bicycle": null, "lanes": null, "maxspeed": "25 mph"}, "Dutch Street": {"highway": "unclassified", "oneway": "yes", "name": null, "bicycle": null, "lanes": null, "maxspeed": "25 mph"}, "Empire Boulevard": {"highway": "secondary", "oneway": "no", "name": null, "bicycle": "yes", "lanes": null, "maxspeed": null}, "Driggs Avenue": {"highway": "residential", "oneway": "yes", "name": null, "bicycle": "yes", "lanes": null, "maxspeed": null}, "West 6th Street": {"highway": "residential", "oneway": "yes", "name": null, "lanes": "2", "bicycle": null, "maxspeed": null}, "Broad Street": {"highway": "unclassified", "oneway": "no", "name": null, "lanes": "2", "bicycle": null, "maxspeed": "25 mph"}, "Prospect Park Southwest": {"highway": "secondary", "oneway": "no", "name": null, "bicycle": "yes", "lanes": null, "maxspeed": null}, "Emmons Avenue": {"highway": "secondary", "oneway": "yes", "name": null, "bicycle": "designated", "lanes": null, "maxspeed": null}, "8th Street": {"highway": "tertiary", "oneway": "yes", "name": null, "lanes": "1", "bicycle": null, "maxspeed": null}, "Hanover Street": {"highway": "residential", "oneway": "yes", "name": null, "bicycle": null, "lanes": null, "maxspeed": "25 mph"}, "Cypress Hills Street": {"highway": "secondary", "oneway": "yes", "name": null, "bicycle": "yes", "lanes": null, "maxspeed": null}, "West 16th Street": {"highway": "residential", "oneway": "yes", "name": null, "bicycle": null, "lanes": null, "maxspeed": "25 mph"}, "West 15th Street": {"highway": "residential", "oneway": "yes", "name": null, "bicycle": null, "lanes": null, "maxspeed": "25 mph"}, "Carlisle Street": {"highway": "residential", "oneway": "yes", "name": null, "lanes": "1", "bicycle": null, "maxspeed": "25 mph"}, "Long Island Expressway": {"highway": "motorway", "oneway": "yes", "name": null, "lanes": "1", "bicycle": null, "maxspeed": null}, "Ryerson Street": {"highway": "unclassified", "oneway": "no", "name": null, "bicycle": "yes", "lanes": null, "maxspeed": null}, "Hegeman Avenue": {"highway": "residential", "oneway": "no", "name": null, "lanes": "2", "bicycle": null, "maxspeed": null}, "Bergan Street": {"highway": "residential", "oneway": "yes", "name": null, "bicycle": "yes", "lanes": null, "maxspeed": null}, "Gowanus Expressway": {"highway": "motorway", "oneway": "yes", "name": null, "bicycle": "no", "lanes": "3", "maxspeed": "50 mph"}, "First Avenue Loop": {"highway": "residential", "oneway": "yes", "name": null, "bicycle": null, "lanes": null, "maxspeed": "25 mph"}, "East 9th Street": {"highway": "residential", "oneway": "yes", "name": null, "bicycle": "yes", "lanes": null, "maxspeed": "20 mph"}, "East 6th Street": {"highway": "residential", "oneway": "yes", "name": null, "lanes": "2", "bicycle": null, "maxspeed": "25 mph"}, "Avenue I": {"highway": "residential", "oneway": "no", "name": null, "bicycle": "yes", "lanes": null, "maxspeed": null}, "Vesey Street": {"highway": "unclassified", "oneway": null, "name": null, "bicycle": "yes", "lanes": null, "maxspeed": "25 mph"}, "Abingdon Square": {"highway": "secondary", "oneway": "yes", "name": null, "bicycle": "yes", "lanes": "3", "maxspeed": "25 mph"}, "East 13th Street": {"highway": "residential", "oneway": "yes", "name": null, "lanes": "2", "bicycle": null, "maxspeed": "25 mph"}, "North Channel Bridge": {"highway": "primary", "oneway": "yes", "name": null, "bicycle": "yes", "lanes": "3", "maxspeed": null}, "Fulton Mall": {"highway": "residential", "oneway": "no", "name": null, "bicycle": "yes", "lanes": null, "maxspeed": null}, "Berry Street": {"highway": "residential", "oneway": "yes", "name": null, "bicycle": "yes", "lanes": null, "maxspeed": null}, "9th Street": {"highway": "cycleway", "oneway": "yes", "name": null, "bicycle": "yes", "lanes": null, "maxspeed": null}, "Robert F. Wagner Sr. Place": {"highway": "secondary", "oneway": "yes", "name": null, "bicycle": null, "lanes": null, "maxspeed": "25 mph"}, "Beard Street": {"highway": "secondary", "oneway": "no", "name": null, "bicycle": "yes", "lanes": null, "maxspeed": null}, "West 11th Street": {"highway": "unclassified", "oneway": "yes", "name": null, "bicycle": null, "lanes": null, "maxspeed": "25 mph"}, "103rd Street": {"highway": "residential", "oneway": "yes", "name": null, "bicycle": "yes", "lanes": null, "maxspeed": null}, "Holland Tunnel access": {"highway": "motorway", "oneway": "yes", "name": null, "bicycle": "no", "lanes": "7", "maxspeed": null}, "Wakeman Place": {"highway": "residential", "oneway": "yes", "name": null, "bicycle": "yes", "lanes": null, "maxspeed": null}, "118th Street": {"highway": "residential", "oneway": "yes", "name": null, "lanes": "1", "bicycle": null, "maxspeed": null}, "Leroy Street": {"highway": "residential", "oneway": "yes", "name": null, "bicycle": null, "lanes": null, "maxspeed": "25 mph"}, "Freedom Way": {"highway": "unclassified", "oneway": "yes", "name": null, "lanes": "1", "bicycle": null, "maxspeed": null}, "Miller Avenue": {"highway": "residential", "oneway": "yes", "name": null, "bicycle": "yes", "lanes": null, "maxspeed": null}, "Imlay Street": {"highway": "residential", "oneway": "yes", "name": null, "bicycle": "yes", "lanes": null, "maxspeed": null}, "Conover Street": {"highway": "residential", "oneway": "no", "name": null, "bicycle": "yes", "lanes": null, "maxspeed": null}, "Hanover Square": {"highway": "residential", "oneway": "no", "name": null, "bicycle": null, "lanes": null, "maxspeed": "25 mph"}, "Bethune Street": {"highway": "residential", "oneway": "yes", "name": null, "bicycle": null, "lanes": null, "maxspeed": "25 mph"}, "Edgar Street": {"highway": "residential", "oneway": "yes", "name": null, "bicycle": null, "lanes": null, "maxspeed": "25 mph"}, "Bay 52nd Street": {"highway": "secondary", "oneway": "yes", "name": null, "bicycle": "yes", "lanes": null, "maxspeed": null}, "Gramercy Park South": {"highway": "residential", "oneway": "yes", "name": null, "bicycle": null, "lanes": null, "maxspeed": "25 mph"}, "West Drive": {"highway": "cycleway", "oneway": "yes", "name": null, "bicycle": "yes", "lanes": null, "maxspeed": null}, "Brooklyn Bridge Park Greenway": {"highway": "cycleway", "oneway": null, "name": null, "bicycle": "yes", "lanes": "2", "maxspeed": null}, "Christopher Street": {"highway": "residential", "oneway": "yes", "name": null, "bicycle": "yes", "lanes": null, "maxspeed": "25 mph"}, "East 8th Street": {"highway": "residential", "oneway": "yes", "name": null, "lanes": "2", "bicycle": null, "maxspeed": "25 mph"}, "Prospect Park Circle Entrance": {"highway": "cycleway", "oneway": "yes", "name": null, "bicycle": "yes", "lanes": null, "maxspeed": null}, "Ann Street": {"highway": "residential", "oneway": "yes", "name": null, "lanes": "1", "bicycle": null, "maxspeed": "25 mph"}, "Onslow Place": {"highway": "residential", "oneway": "yes", "name": null, "bicycle": "yes", "lanes": null, "maxspeed": null}, "Pike Slip": {"highway": "primary", "oneway": "yes", "name": null, "bicycle": null, "lanes": null, "maxspeed": "25 mph"}, "Main Street": {"highway": "primary", "oneway": "yes", "name": null, "lanes": "4", "bicycle": null, "maxspeed": null}, "Ridge Boulevard": {"highway": "tertiary", "oneway": "yes", "name": null, "lanes": "2", "bicycle": null, "maxspeed": null}, "Freedom Drive": {"highway": "residential", "oneway": "no", "name": null, "bicycle": "yes", "lanes": null, "maxspeed": null}, "Jay Street": {"highway": "secondary", "oneway": "no", "name": null, "bicycle": "yes", "lanes": null, "maxspeed": null}, "Rockaway Beach Boulevard": {"highway": "tertiary", "oneway": "no", "name": null, "bicycle": "yes", "lanes": null, "maxspeed": null}, "Ocean Avenue": {"highway": "secondary", "oneway": "no", "name": null, "lanes": "4", "bicycle": null, "maxspeed": null}, "East Drive": {"highway": "cycleway", "oneway": "yes", "name": null, "bicycle": "yes", "lanes": null, "maxspeed": null}, "Meserole Avenue": {"highway": "residential", "oneway": "yes", "name": null, "bicycle": null, "lanes": null, "maxspeed": "25 mph"}, "West Lake Drive": {"highway": "cycleway", "oneway": "yes", "name": null, "bicycle": "yes", "lanes": null, "maxspeed": null}, "Berkeley Place": {"highway": "residential", "oneway": "yes", "name": null, "bicycle": "yes", "lanes": null, "maxspeed": null}, "Jay Street Greenway": {"highway": "cycleway", "oneway": null, "name": null, "bicycle": "yes", "lanes": "2", "maxspeed": null}, "Brooklyn-Queens Expressway": {"highway": "motorway", "oneway": "yes", "name": null, "bicycle": "no", "lanes": "2", "maxspeed": "45 mph"}, "East 21st Street": {"highway": "residential", "oneway": "yes", "name": null, "bicycle": "yes", "lanes": null, "maxspeed": null}, "Bedford Street": {"highway": "unclassified", "oneway": "yes", "name": null, "bicycle": null, "lanes": null, "maxspeed": "25 mph"}, "Samuel Dickstein Plaza": {"highway": "secondary", "oneway": null, "name": null, "bicycle": "yes", "lanes": null, "maxspeed": "25 mph"}, "Trimble Place": {"highway": "residential", "oneway": "yes", "name": null, "bicycle": null, "lanes": null, "maxspeed": "25 mph"}, "Union Square East": {"highway": "secondary", "oneway": "yes", "name": null, "bicycle": null, "lanes": null, "maxspeed": "25 mph"}, "Quay Street": {"highway": "residential", "oneway": "yes", "name": null, "bicycle": "yes", "lanes": null, "maxspeed": null}, "South William Street": {"highway": "residential", "oneway": "yes", "name": null, "bicycle": null, "lanes": null, "maxspeed": "25 mph"}, "Great Jones Street": {"highway": "residential", "oneway": "yes", "name": null, "bicycle": null, "lanes": null, "maxspeed": "25 mph"}, "Cortlandt Street": {"highway": "unclassified", "oneway": "yes", "name": null, "bicycle": null, "lanes": null, "maxspeed": "25 mph"}, "East New York Avenue": {"highway": "secondary", "oneway": "no", "name": null, "bicycle": "yes", "lanes": null, "maxspeed": null}, "Whitehall Street": {"highway": "residential", "oneway": "yes", "name": null, "bicycle": null, "lanes": null, "maxspeed": "25 mph"}, "Old Slip": {"highway": "cycleway", "oneway": "yes", "name": null, "bicycle": "yes", "lanes": null, "maxspeed": null}, "Cross Bay Boulevard": {"highway": "trunk", "oneway": "yes", "name": null, "lanes": "4", "bicycle": null, "maxspeed": null}, "Bay 50th Street": {"highway": "secondary", "oneway": "yes", "name": null, "bicycle": "yes", "lanes": null, "maxspeed": null}, "East 19th Street": {"highway": "residential", "oneway": "yes", "name": null, "bicycle": null, "lanes": null, "maxspeed": "25 mph"}, "158th Avenue": {"highway": "residential", "oneway": "yes", "name": null, "bicycle": "yes", "lanes": null, "maxspeed": null}, "Juniper Boulevard North": {"highway": "residential", "oneway": "yes", "name": null, "bicycle": null, "lanes": null, "maxspeed": "25 mph"}, "Queens Boulevard": {"highway": "residential", "oneway": "yes", "name": null, "bicycle": null, "lanes": null, "maxspeed": "25 mph"}, "Cooper Square": {"highway": "primary", "oneway": "yes", "name": null, "bicycle": null, "lanes": null, "maxspeed": "25 mph"}, "Prospect Expressway": {"highway": "motorway", "oneway": "yes", "name": null, "lanes": "3", "bicycle": null, "maxspeed": null}, "Shore Boulevard": {"highway": "secondary", "oneway": "no", "name": null, "lanes": "6", "bicycle": null, "maxspeed": null}, "East 18th Street": {"highway": "residential", "oneway": "yes", "name": null, "bicycle": null, "lanes": null, "maxspeed": "25 mph"}, "Central Avenue": {"highway": "residential", "oneway": "yes", "name": null, "bicycle": "yes", "lanes": null, "maxspeed": null}, "Stuyvesant Street": {"highway": "residential", "oneway": "yes", "name": null, "bicycle": null, "lanes": null, "maxspeed": "25 mph"}, "East Lake Drive": {"highway": "cycleway", "oneway": "yes", "name": null, "bicycle": "yes", "lanes": null, "maxspeed": null}, "Horace Harding Expressway": {"highway": "trunk", "oneway": "yes", "name": null, "lanes": "3", "bicycle": null, "maxspeed": null}, "Stanton Street": {"highway": "residential", "oneway": "yes", "name": null, "bicycle": "yes", "lanes": null, "maxspeed": "25 mph"}, "Hoyt Street": {"highway": "residential", "oneway": "yes", "name": null, "bicycle": "yes", "lanes": null, "maxspeed": null}, "White Street": {"highway": "residential", "oneway": "yes", "name": null, "bicycle": null, "lanes": null, "maxspeed": "25 mph"}, "Cross Bay Boulevard Greenway": {"highway": "cycleway", "oneway": "yes", "name": null, "bicycle": "yes", "lanes": null, "maxspeed": null}, "Centre Street": {"highway": "secondary", "oneway": "yes", "name": null, "bicycle": null, "lanes": null, "maxspeed": "25 mph"}, "MacDougal Street": {"highway": "unclassified", "oneway": "yes", "name": null, "bicycle": null, "lanes": null, "maxspeed": "25 mph"}, "Beach Street": {"highway": "primary", "oneway": "yes", "name": null, "bicycle": null, "lanes": null, "maxspeed": "25 mph"}, "Howard Avenue": {"highway": "tertiary", "oneway": "yes", "name": null, "lanes": "2", "bicycle": null, "maxspeed": null}, "Eckford Street": {"highway": "residential", "oneway": "yes", "name": null, "bicycle": null, "lanes": null, "maxspeed": "25 mph"}, "Park Lane": {"highway": "residential", "oneway": "no", "name": null, "bicycle": "yes", "lanes": null, "maxspeed": null}, "Saint John's Lane": {"highway": "residential", "oneway": "yes", "name": null, "bicycle": null, "lanes": null, "maxspeed": "25 mph"}, "Bay Parkway": {"highway": "primary", "oneway": "no", "name": null, "bicycle": "yes", "lanes": "4", "maxspeed": null}, "135th Street": {"highway": "residential", "oneway": "yes", "name": null, "bicycle": "yes", "lanes": null, "maxspeed": null}, "Nassau Expressway": {"highway": "motorway", "oneway": "yes", "name": null, "lanes": "2", "bicycle": null, "maxspeed": null}, "Howard Street": {"highway": "residential", "oneway": "yes", "name": null, "bicycle": null, "lanes": null, "maxspeed": "25 mph"}, "Gouverneur Lane": {"highway": "residential", "oneway": "yes", "name": null, "bicycle": null, "lanes": null, "maxspeed": "25 mph"}, "Bloomfield Street": {"highway": "tertiary", "oneway": "yes", "name": null, "bicycle": null, "lanes": null, "maxspeed": "30"}, "Nassau Street": {"highway": "residential", "oneway": "yes", "name": null, "bicycle": null, "lanes": null, "maxspeed": "25 mph"}, "Garnet Street": {"highway": "residential", "oneway": "yes", "name": null, "bicycle": "yes", "lanes": null, "maxspeed": null}, "Gold Street": {"highway": "residential", "oneway": "no", "name": null, "bicycle": null, "lanes": null, "maxspeed": "25 mph"}, "Division Avenue": {"highway": "residential", "oneway": "no", "name": null, "bicycle": "designated", "lanes": null, "maxspeed": null}, "North End Avenue": {"highway": "unclassified", "oneway": "yes", "name": null, "bicycle": null, "lanes": null, "maxspeed": "25 mph"}, "East 17th Street": {"highway": "residential", "oneway": "yes", "name": null, "bicycle": null, "lanes": null, "maxspeed": "25 mph"}, "Floyd Bennett Boulevard": {"highway": "tertiary", "oneway": "yes", "name": null, "lanes": "2", "bicycle": null, "maxspeed": null}, "Minetta Lane": {"highway": "residential", "oneway": "yes", "name": null, "bicycle": null, "lanes": null, "maxspeed": "25 mph"}, "63rd Avenue": {"highway": "residential", "oneway": "yes", "name": null, "bicycle": null, "lanes": null, "maxspeed": "25 mph"}, "Williamsburg Bridge": {"highway": "motorway", "oneway": "yes", "name": null, "lanes": "2", "bicycle": null, "maxspeed": "35 mph"}, "Mulberry Street": {"highway": "residential", "oneway": "yes", "name": null, "bicycle": null, "lanes": null, "maxspeed": "25 mph"}, "Mill Street": {"highway": "residential", "oneway": "yes", "name": null, "bicycle": "yes", "lanes": null, "maxspeed": "25 mph"}, "West 10th Street": {"highway": "unclassified", "oneway": "yes", "name": null, "bicycle": "yes", "lanes": null, "maxspeed": "25 mph"}, "Bay 32nd Street": {"highway": "residential", "oneway": "yes", "name": null, "lanes": "1", "bicycle": null, "maxspeed": null}, "IKEA Greenway": {"highway": "cycleway", "oneway": null, "name": null, "bicycle": "yes", "lanes": "2", "maxspeed": null}, "Pacific Street": {"highway": "residential", "oneway": "yes", "name": null, "bicycle": "yes", "lanes": null, "maxspeed": null}, "Hugh L. Carey Tunnel": {"highway": "motorway", "oneway": "yes", "name": null, "bicycle": "no", "lanes": "2", "maxspeed": "40 mph"}, "Dean Street": {"highway": "residential", "oneway": "yes", "name": null, "bicycle": "yes", "lanes": "1", "maxspeed": "25 mph"}, "Prospect Park West Bike Path": {"highway": "cycleway", "oneway": "no", "name": null, "bicycle": "yes", "lanes": null, "maxspeed": null}, "Commercial Street": {"highway": "secondary", "oneway": "yes", "name": null, "bicycle": "yes", "lanes": null, "maxspeed": null}, "80th Road": {"highway": "residential", "oneway": "-1", "name": null, "bicycle": "yes", "lanes": null, "maxspeed": null}, "East 24th Street": {"highway": "residential", "oneway": "yes", "name": null, "lanes": "1", "bicycle": null, "maxspeed": null}, "West Street": {"highway": "trunk", "oneway": "yes", "name": null, "lanes": "4", "bicycle": null, "maxspeed": "35 mph"}, "Avenue N": {"highway": "residential", "oneway": "yes", "name": null, "lanes": "2", "bicycle": null, "maxspeed": null}, "2nd Street": {"highway": "residential", "oneway": "yes", "name": null, "bicycle": "yes", "lanes": null, "maxspeed": null}, "Beaver Street": {"highway": "unclassified", "oneway": "yes", "name": null, "lanes": "1", "bicycle": null, "maxspeed": "25 mph"}}