{"158th Avenue": {"oneway": "yes", "bicycle": "yes", "lanes": null, "highway": "residential", "maxspeed": null}, "Long Island Motor Parkway": {"oneway": "no", "bicycle": "yes", "lanes": null, "highway": "cycleway", "maxspeed": null}, "43rd Street": {"oneway": "no", "bicycle": null, "lanes": "2", "highway": "residential", "maxspeed": null}, "Sunrise Highway": {"oneway": "yes", "bicycle": null, "lanes": "3", "highway": "trunk", "maxspeed": null}, "Howard Avenue": {"oneway": "yes", "bicycle": null, "lanes": "2", "highway": "tertiary", "maxspeed": null}, "Peck Avenue": {"oneway": "yes", "bicycle": "yes", "lanes": null, "highway": "residential", "maxspeed": null}, "127th Street": {"oneway": "no", "bicycle": null, "lanes": "2", "highway": "tertiary", "maxspeed": null}, "Cross Island Parkway Service Road": {"oneway": "yes", "bicycle": null, "lanes": "2", "highway": "tertiary", "maxspeed": null}, "Hoyt Avenue North": {"oneway": "yes", "bicycle": "yes", "lanes": null, "highway": "secondary", "maxspeed": null}, "20th Avenue": {"oneway": "no", "bicycle": null, "lanes": "2", "highway": "residential", "maxspeed": null}, "128th Street": {"oneway": "yes", "bicycle": null, "lanes": "1", "highway": "tertiary", "maxspeed": null}, "Whitestone Expressway Service Road": {"oneway": "yes", "bicycle": null, "lanes": "2", "highway": "tertiary", "maxspeed": null}, "Woodhaven Boulevard": {"oneway": "yes", "bicycle": "yes", "lanes": "3", "highway": "trunk", "maxspeed": 56.3269}, "Skillman Avenue": {"oneway": "yes", "bicycle": "yes", "lanes": null, "highway": "residential", "maxspeed": null}, "Throgs Neck Bridge": {"oneway": "yes", "bicycle": "no", "lanes": "3", "highway": "motorway", "maxspeed": 72.4203}, "Van Wyck Expressway East": {"oneway": "yes", "bicycle": null, "lanes": "3", "highway": "primary", "maxspeed": null}, "Hegeman Avenue": {"oneway": "no", "bicycle": null, "lanes": "2", "highway": "residential", "maxspeed": null}, "Queens Boulevard": {"oneway": "yes", "bicycle": null, "lanes": null, "highway": "residential", "maxspeed": 40.2335}, "Woodside Avenue": {"oneway": "no", "bicycle": null, "lanes": "2", "highway": "tertiary", "maxspeed": 32.1868}, "21st Avenue": {"oneway": "no", "bicycle": null, "lanes": "2", "highway": "residential", "maxspeed": null}, "Brooklyn Queens Expressway": {"oneway": "yes", "bicycle": "no", "lanes": "3", "highway": "motorway", "maxspeed": 64.3736}, "118th Street": {"oneway": "yes", "bicycle": null, "lanes": "1", "highway": "residential", "maxspeed": null}, "Astoria Park South": {"oneway": "yes", "bicycle": "yes", "lanes": "1", "highway": "tertiary", "maxspeed": null}, "East 51st Street": {"oneway": "yes", "bicycle": null, "lanes": "1", "highway": "residential", "maxspeed": null}, "65th Place": {"oneway": "no", "bicycle": null, "lanes": "4", "highway": "tertiary", "maxspeed": null}, "Cross Island Parkway": {"oneway": "yes", "bicycle": null, "lanes": "3", "highway": "motorway", "maxspeed": 80.467}, "Long Island Expressway": {"oneway": "yes", "bicycle": null, "lanes": "1", "highway": "motorway", "maxspeed": null}, "Bergan Street": {"oneway": "yes", "bicycle": "yes", "lanes": null, "highway": "residential", "maxspeed": null}, "Sterling Place": {"oneway": "yes", "bicycle": null, "lanes": null, "highway": "residential", "maxspeed": 40.2335}, "Jewel Avenue": {"oneway": "yes", "bicycle": "yes", "lanes": null, "highway": "tertiary", "maxspeed": null}, "Grand Central Parkway": {"oneway": "yes", "bicycle": null, "lanes": "2", "highway": "motorway", "maxspeed": null}, "Rockaway Parkway": {"oneway": "no", "bicycle": "yes", "lanes": "4", "highway": "tertiary", "maxspeed": null}, "Robert F. Kennedy Bridge": {"oneway": "yes", "bicycle": "no", "lanes": "2", "highway": "motorway", "maxspeed": 16.0934}, "Harlem River Pathway": {"oneway": null, "bicycle": "yes", "lanes": "2", "highway": "cycleway", "maxspeed": null}, "Merrick Boulevard": {"oneway": "yes", "bicycle": null, "lanes": "3", "highway": "primary", "maxspeed": null}, "Malba Drive": {"oneway": "yes", "bicycle": null, "lanes": "1", "highway": "tertiary", "maxspeed": null}, "Meadow Lake West Road": {"oneway": "yes", "bicycle": "designated", "lanes": null, "highway": "residential", "maxspeed": null}, "Van Wyck Expressway": {"oneway": "yes", "bicycle": "no", "lanes": "3", "highway": "motorway", "maxspeed": null}, "New Lots Avenue": {"oneway": "no", "bicycle": null, "lanes": "2", "highway": "tertiary", "maxspeed": null}, "HIghland Park Greenway": {"oneway": null, "bicycle": "yes", "lanes": "2", "highway": "cycleway", "maxspeed": null}, "Farmers Boulevard": {"oneway": "no", "bicycle": null, "lanes": "2", "highway": "secondary", "maxspeed": null}, "Center Drive": {"oneway": "yes", "bicycle": null, "lanes": "1", "highway": "tertiary", "maxspeed": null}, "Central Avenue": {"oneway": "yes", "bicycle": "yes", "lanes": null, "highway": "residential", "maxspeed": null}, "Belt Parkway": {"oneway": "yes", "bicycle": null, "lanes": "3", "highway": "motorway", "maxspeed": null}, "45th Street": {"oneway": "yes", "bicycle": null, "lanes": "1", "highway": "residential", "maxspeed": null}, "80th Road": {"oneway": "-1", "bicycle": "yes", "lanes": null, "highway": "residential", "maxspeed": null}, "Whitestone Expressway Service Road North": {"oneway": "yes", "bicycle": null, "lanes": "3", "highway": "secondary", "maxspeed": null}, "Saint Marks Avenue": {"oneway": "yes", "bicycle": "yes", "lanes": null, "highway": "residential", "maxspeed": null}, "71st Place": {"oneway": "no", "bicycle": null, "lanes": "2", "highway": "residential", "maxspeed": null}, "73rd Place": {"oneway": "no", "bicycle": null, "lanes": "2", "highway": "tertiary", "maxspeed": null}, "Onslow Place": {"oneway": "yes", "bicycle": "yes", "lanes": null, "highway": "residential", "maxspeed": null}, "Randalls Island Greenway": {"oneway": null, "bicycle": "yes", "lanes": "2", "highway": "cycleway", "maxspeed": null}, "42nd Avenue": {"oneway": "yes", "bicycle": null, "lanes": null, "highway": "residential", "maxspeed": 40.2335}, "South Conduit Avenue": {"oneway": "yes", "bicycle": null, "lanes": "4", "highway": "trunk", "maxspeed": null}, "Astoria Blvd Ramp": {"oneway": "yes", "bicycle": null, "lanes": "4", "highway": "primary", "maxspeed": null}, "48th Street": {"oneway": null, "bicycle": "yes", "lanes": "2", "highway": "tertiary", "maxspeed": 32.1868}, "Cross Bay Boulevard": {"oneway": "yes", "bicycle": null, "lanes": "4", "highway": "trunk", "maxspeed": null}, "North Conduit Avenue": {"oneway": "yes", "bicycle": null, "lanes": "4", "highway": "trunk", "maxspeed": null}, "Van Wyck Expressway West": {"oneway": "yes", "bicycle": null, "lanes": "3", "highway": "primary", "maxspeed": null}, "Main Avenue": {"oneway": "yes", "bicycle": null, "lanes": null, "highway": "secondary", "maxspeed": 40.2335}, "Whitestone Expressway - Service Road West": {"oneway": "yes", "bicycle": null, "lanes": "3", "highway": "secondary", "maxspeed": null}, "164th Street": {"oneway": "yes", "bicycle": "yes", "lanes": null, "highway": "tertiary", "maxspeed": 40.2335}, "Guy R. Brewer Boulevard": {"oneway": "no", "bicycle": null, "lanes": "4", "highway": "secondary", "maxspeed": null}, "42nd Street": {"oneway": "yes", "bicycle": null, "lanes": "1", "highway": "residential", "maxspeed": null}, "Sutter Avenue": {"oneway": "no", "bicycle": null, "lanes": "2", "highway": "tertiary", "maxspeed": null}, "Van Siclen Avenue": {"oneway": "no", "bicycle": null, "lanes": "2", "highway": "tertiary", "maxspeed": null}, "63rd Avenue": {"oneway": "yes", "bicycle": null, "lanes": null, "highway": "residential", "maxspeed": 40.2335}, "Throgs Neck Expressway": {"oneway": "yes", "bicycle": "no", "lanes": "2", "highway": "motorway", "maxspeed": null}, "Whitestone Exwy Service Road": {"oneway": "yes", "bicycle": null, "lanes": "2", "highway": "tertiary", "maxspeed": null}, "Boody Street": {"oneway": "yes", "bicycle": null, "lanes": "2", "highway": "primary", "maxspeed": null}, "Astoria Boulevard Ramp": {"oneway": "yes", "bicycle": null, "lanes": "4", "highway": "primary", "maxspeed": null}, "Dean Street": {"oneway": "yes", "bicycle": "yes", "lanes": null, "highway": "residential", "maxspeed": null}, "34th Avenue": {"oneway": "no", "bicycle": "yes", "lanes": null, "highway": "residential", "maxspeed": null}, "50th Avenue": {"oneway": "no", "bicycle": "yes", "lanes": null, "highway": "residential", "maxspeed": null}, "Freedom Drive": {"oneway": "no", "bicycle": "yes", "lanes": null, "highway": "residential", "maxspeed": null}, "Laurelton Parkway": {"oneway": "yes", "bicycle": null, "lanes": "1", "highway": "tertiary", "maxspeed": null}, "Saint Johns Place": {"oneway": "no", "bicycle": null, "lanes": null, "highway": "residential", "maxspeed": 40.2335}, "JFK Expressway": {"oneway": "yes", "bicycle": null, "lanes": "3", "highway": "motorway", "maxspeed": null}, "Hoover Avenue": {"oneway": "yes", "bicycle": "yes", "lanes": null, "highway": "residential", "maxspeed": null}, "Ditmars Boulevard": {"oneway": "no", "bicycle": null, "lanes": "2", "highway": "tertiary", "maxspeed": null}, "Albert Road": {"oneway": "yes", "bicycle": null, "lanes": "2", "highway": "residential", "maxspeed": null}, "Crescent Street": {"oneway": "yes", "bicycle": null, "lanes": "1", "highway": "tertiary", "maxspeed": 32.1868}, "Brooklyn-Queens Expressway": {"oneway": "yes", "bicycle": "no", "lanes": "1", "highway": "motorway", "maxspeed": null}, "Clearview Expressway": {"oneway": "yes", "bicycle": "no", "lanes": "3", "highway": "motorway", "maxspeed": null}, "Bell Boulevard": {"oneway": "yes", "bicycle": null, "lanes": null, "highway": "tertiary", "maxspeed": 40.2335}, "Broadway": {"oneway": "no", "bicycle": null, "lanes": null, "highway": "secondary", "maxspeed": 40.2335}, "82nd Avenue": {"oneway": "yes", "bicycle": "yes", "lanes": null, "highway": "residential", "maxspeed": null}, "Totten Avenue": {"oneway": "no", "bicycle": null, "lanes": "2", "highway": "tertiary", "maxspeed": null}, "Brookville Park Greenway": {"oneway": null, "bicycle": "yes", "lanes": "2", "highway": "cycleway", "maxspeed": null}, "Meadow Lake Promenade": {"oneway": "yes", "bicycle": "yes", "lanes": null, "highway": "unclassified", "maxspeed": null}, "Astoria Boulevard South": {"oneway": "yes", "bicycle": null, "lanes": "4", "highway": "primary", "maxspeed": null}, "Cypress Hills Street": {"oneway": "yes", "bicycle": "yes", "lanes": null, "highway": "secondary", "maxspeed": null}, "Utopia Parkway": {"oneway": "yes", "bicycle": "yes", "lanes": null, "highway": "secondary", "maxspeed": null}, "33rd Street": {"oneway": "yes", "bicycle": null, "lanes": "1", "highway": "residential", "maxspeed": 40.2335}, "Miller Avenue": {"oneway": "yes", "bicycle": "yes", "lanes": null, "highway": "residential", "maxspeed": null}, "Whitestone Expressway": {"oneway": "yes", "bicycle": null, "lanes": "3", "highway": "motorway", "maxspeed": null}, "Lefferts Boulevard": {"oneway": "no", "bicycle": null, "lanes": "5", "highway": "secondary", "maxspeed": null}, "East New York Avenue": {"oneway": "no", "bicycle": "yes", "lanes": null, "highway": "secondary", "maxspeed": null}, "Nassau Expressway": {"oneway": "yes", "bicycle": null, "lanes": "4", "highway": "motorway", "maxspeed": null}, "159th Avenue": {"oneway": "yes", "bicycle": "yes", "lanes": null, "highway": "residential", "maxspeed": null}, "38th Street": {"oneway": "yes", "bicycle": null, "lanes": "1", "highway": "residential", "maxspeed": 40.2335}, "Forest Park Greenway": {"oneway": null, "bicycle": "yes", "lanes": "2", "highway": "cycleway", "maxspeed": null}, "28th Street": {"oneway": "yes", "bicycle": null, "lanes": "1", "highway": "residential", "maxspeed": null}, "Hazen Street": {"oneway": "no", "bicycle": null, "lanes": "2", "highway": "residential", "maxspeed": null}, "Conduit Boulevard": {"oneway": "yes", "bicycle": null, "lanes": "3", "highway": "trunk", "maxspeed": null}, "Cunningham Park Greenway": {"oneway": null, "bicycle": "yes", "lanes": "2", "highway": "cycleway", "maxspeed": null}, "Indiana Avenue": {"oneway": "no", "bicycle": null, "lanes": "2", "highway": "residential", "maxspeed": null}, "Astoria Park Greenway": {"oneway": "no", "bicycle": "yes", "lanes": null, "highway": "cycleway", "maxspeed": null}, "41st Street": {"oneway": "yes", "bicycle": null, "lanes": "1", "highway": "residential", "maxspeed": null}, "Jackie Robinson Parkway": {"oneway": "yes", "bicycle": null, "lanes": "2", "highway": "motorway", "maxspeed": null}, "Park Lane": {"oneway": "no", "bicycle": "yes", "lanes": null, "highway": "residential", "maxspeed": null}, "130th Street": {"oneway": "no", "bicycle": null, "lanes": "2", "highway": "tertiary", "maxspeed": null}, "69th Road": {"oneway": "yes", "bicycle": "yes", "lanes": null, "highway": "secondary", "maxspeed": null}, "Forest Park Drive": {"oneway": "no", "bicycle": "yes", "lanes": null, "highway": "residential", "maxspeed": null}, "Juniper Boulevard North": {"oneway": "yes", "bicycle": null, "lanes": null, "highway": "residential", "maxspeed": 40.2335}, "29th Street": {"oneway": "yes", "bicycle": null, "lanes": "1", "highway": "residential", "maxspeed": null}, "Southern Parkway Service Road": {"oneway": "yes", "bicycle": null, "lanes": "3", "highway": "trunk", "maxspeed": null}, "37th Street": {"oneway": "yes", "bicycle": null, "lanes": "1", "highway": "residential", "maxspeed": 40.2335}, "58th Street": {"oneway": "no", "bicycle": "yes", "lanes": null, "highway": "secondary", "maxspeed": 48.2802}}