{"Battery Place": {"highway": "primary", "lanes": null, "oneway": "yes", "bicycle": null, "maxspeed": 40.2335}, "East 1st Street": {"highway": "residential", "lanes": null, "oneway": "yes", "bicycle": null, "maxspeed": 40.2335}, "East 138th Street": {"highway": "secondary", "maxspeed": null, "oneway": "yes", "lanes": "2", "bicycle": null}, "Elizabeth Street": {"highway": "residential", "lanes": null, "oneway": "yes", "bicycle": null, "maxspeed": 40.2335}, "East 17th Street": {"highway": "residential", "lanes": null, "oneway": "yes", "bicycle": null, "maxspeed": 40.2335}, "Skillman Avenue": {"highway": "residential", "maxspeed": null, "bicycle": "yes", "lanes": null, "oneway": "yes"}, "Ericsson PI": {"highway": "motorway_link", "lanes": null, "oneway": "yes", "bicycle": null, "maxspeed": 40.2335}, "Degraw Avenue": {"bicycle": null, "highway": "primary", "oneway": "yes", "lanes": "4", "maxspeed": 72.4203}, "East 6th Street": {"bicycle": null, "highway": "residential", "oneway": "yes", "lanes": "2", "maxspeed": 40.2335}, "North Basin Road": {"highway": "residential", "maxspeed": null, "oneway": "yes", "lanes": "1", "bicycle": null}, "Little West 12th Street": {"highway": "unclassified", "lanes": null, "oneway": "yes", "bicycle": null, "maxspeed": 40.2335}, "Perry Street": {"highway": "unclassified", "lanes": null, "oneway": "yes", "bicycle": null, "maxspeed": 40.2335}, "Adam Clayton Powell Jr. Boulevard": {"highway": "primary", "maxspeed": null, "bicycle": "yes", "lanes": null, "oneway": "yes"}, "Saint Nicholas Avenue": {"highway": "secondary", "maxspeed": null, "bicycle": "yes", "lanes": null, "oneway": "no"}, "Mercer Street": {"highway": "residential", "lanes": null, "oneway": "yes", "bicycle": null, "maxspeed": 40.2335}, "Quay Street": {"highway": "residential", "maxspeed": null, "bicycle": "yes", "lanes": null, "oneway": "yes"}, "Washington Park": {"highway": "residential", "maxspeed": null, "bicycle": "yes", "lanes": null, "oneway": "yes"}, "West 11th Street": {"highway": "unclassified", "lanes": null, "oneway": "yes", "bicycle": null, "maxspeed": 40.2335}, "Baruch Place": {"highway": "residential", "lanes": null, "oneway": "yes", "bicycle": null, "maxspeed": 40.2335}, "Franklin Street": {"highway": "residential", "lanes": null, "oneway": "yes", "bicycle": null, "maxspeed": 40.2335}, "Manhattan Bridge lower level": {"highway": "primary", "lanes": null, "oneway": "yes", "bicycle": null, "maxspeed": 56.3269}, "50th Avenue": {"highway": "residential", "oneway": null, "bicycle": "designated", "lanes": "2", "maxspeed": null}, "East 25th Street": {"highway": "unclassified", "lanes": null, "oneway": "yes", "bicycle": null, "maxspeed": 40.2335}, "Ash Street": {"highway": "secondary", "maxspeed": null, "bicycle": "yes", "lanes": null, "oneway": "yes"}, "Jay Street Greenway": {"highway": "cycleway", "oneway": null, "bicycle": "yes", "lanes": "2", "maxspeed": null}, "Hudson View Gardens driveway": {"highway": "unclassified", "lanes": null, "oneway": "yes", "bicycle": null, "maxspeed": 32.1868}, "RFK south side walkway": {"highway": "cycleway", "maxspeed": null, "bicycle": "yes", "lanes": null, "oneway": "no"}, "East 32nd Street": {"bicycle": null, "highway": "unclassified", "oneway": "yes", "lanes": "3", "maxspeed": 40.2335}, "South 5th Street": {"highway": "residential", "maxspeed": null, "bicycle": "yes", "lanes": null, "oneway": "yes"}, "South William Street": {"highway": "residential", "lanes": null, "oneway": "yes", "bicycle": null, "maxspeed": 40.2335}, "Robert F. Wagner Sr. Place": {"highway": "secondary", "lanes": null, "oneway": "yes", "bicycle": null, "maxspeed": 40.2335}, "Sinatra Drive": {"highway": "tertiary", "maxspeed": null, "bicycle": "yes", "lanes": null, "oneway": "no"}, "The Bowery": {"highway": "primary", "oneway": "yes", "bicycle": "designated", "lanes": null, "maxspeed": 40.2335}, "Tompkins Avenue": {"highway": "residential", "maxspeed": null, "bicycle": "yes", "lanes": null, "oneway": "yes"}, "East 102nd Street": {"highway": "residential", "maxspeed": null, "oneway": "yes", "lanes": "1", "bicycle": null}, "West 91st Street": {"highway": "residential", "maxspeed": null, "bicycle": "yes", "lanes": null, "oneway": "yes"}, "White Street": {"highway": "residential", "lanes": null, "oneway": "yes", "bicycle": null, "maxspeed": 40.2335}, "West 30th Street": {"highway": "motorway", "maxspeed": null, "oneway": "yes", "lanes": "2", "bicycle": null}, "East 4th Street": {"highway": "residential", "lanes": null, "oneway": "yes", "bicycle": null, "maxspeed": 32.1868}, "West 48th Street": {"highway": "residential", "maxspeed": null, "oneway": "yes", "lanes": "1", "bicycle": null}, "Newel Street": {"highway": "residential", "lanes": null, "oneway": "yes", "bicycle": null, "maxspeed": 40.2335}, "West 90th Street": {"highway": "residential", "maxspeed": null, "bicycle": "yes", "lanes": null, "oneway": "yes"}, "University Place": {"highway": "residential", "lanes": null, "oneway": "yes", "bicycle": null, "maxspeed": 40.2335}, "Lincoln Tunnel Expressway": {"highway": "motorway", "maxspeed": null, "oneway": "yes", "lanes": "2", "bicycle": null}, "West 51st Street": {"highway": "residential", "maxspeed": null, "oneway": "yes", "lanes": "3", "bicycle": null}, "23rd Avenue": {"highway": "residential", "oneway": null, "bicycle": null, "lanes": "2", "maxspeed": 48.2802}, "Stuyvesant Street": {"highway": "residential", "lanes": null, "oneway": "yes", "bicycle": null, "maxspeed": 40.2335}, "8th Avenue": {"highway": "secondary", "oneway": "yes", "bicycle": "yes", "lanes": "4", "maxspeed": 40.2335}, "Saint Lukes Place": {"highway": "residential", "lanes": null, "oneway": "yes", "bicycle": null, "maxspeed": 32.1868}, "Weehawken Street": {"highway": "unclassified", "lanes": null, "oneway": "yes", "bicycle": null, "maxspeed": 40.2335}, "Cooper Square": {"highway": "primary", "lanes": null, "oneway": "yes", "bicycle": null, "maxspeed": 40.2335}, "21st Avenue": {"highway": "residential", "maxspeed": null, "oneway": "no", "lanes": "2", "bicycle": null}, "Grand Street": {"highway": "residential", "oneway": "yes", "bicycle": "yes", "lanes": null, "maxspeed": 40.2335}, "Victoria Terrace": {"highway": "living_street", "lanes": null, "oneway": "yes", "bicycle": null, "maxspeed": 32.1868}, "West Street": {"bicycle": null, "highway": "trunk", "oneway": "yes", "lanes": "4", "maxspeed": 56.3269}, "1st Avenue Tunnel": {"highway": "primary", "maxspeed": null, "bicycle": "no", "lanes": "1", "oneway": "yes"}, "Ed Koch Queensboro Bridge Upper Level": {"highway": "motorway", "maxspeed": null, "oneway": "yes", "lanes": "2", "bicycle": null}, "West 27th Drive": {"bicycle": null, "highway": "unclassified", "oneway": "yes", "lanes": "1", "maxspeed": 40.2335}, "Grand Concourse": {"highway": "secondary", "maxspeed": null, "bicycle": "yes", "lanes": "1", "oneway": "yes"}, "McGuinness Boulevard": {"highway": "primary", "lanes": null, "oneway": "yes", "bicycle": null, "maxspeed": 40.2335}, "Jane Street": {"highway": "unclassified", "lanes": null, "oneway": "yes", "bicycle": null, "maxspeed": 40.2335}, "Astoria Park South": {"highway": "tertiary", "maxspeed": null, "bicycle": "yes", "lanes": "1", "oneway": "yes"}, "Plymouth Street": {"highway": "residential", "maxspeed": null, "oneway": "yes", "lanes": "1", "bicycle": null}, "West 22nd Street": {"highway": "unclassified", "lanes": null, "oneway": "yes", "bicycle": null, "maxspeed": 40.2335}, "Hoyt Street": {"highway": "residential", "maxspeed": null, "bicycle": "yes", "lanes": null, "oneway": "yes"}, "Beaver Street": {"bicycle": null, "highway": "unclassified", "oneway": "yes", "lanes": "1", "maxspeed": 40.2335}, "Bedford Street": {"highway": "unclassified", "lanes": null, "oneway": "yes", "bicycle": null, "maxspeed": 40.2335}, "Gouverneur Lane": {"highway": "residential", "lanes": null, "oneway": "yes", "bicycle": null, "maxspeed": 40.2335}, "East 7th Street": {"bicycle": null, "highway": "residential", "oneway": "yes", "lanes": "1", "maxspeed": 40.2335}, "Edgar Street": {"highway": "residential", "lanes": null, "oneway": "yes", "bicycle": null, "maxspeed": 40.2335}, "Szold Place": {"highway": "residential", "lanes": null, "oneway": "yes", "bicycle": null, "maxspeed": 32.1868}, "East 22nd Street": {"highway": "residential", "lanes": null, "oneway": "yes", "bicycle": null, "maxspeed": 40.2335}, "West 55th Street": {"highway": "unclassified", "maxspeed": null, "bicycle": "yes", "lanes": null, "oneway": "yes"}, "Trimble Place": {"highway": "residential", "lanes": null, "oneway": "yes", "bicycle": null, "maxspeed": 40.2335}, "Division Street": {"highway": "secondary", "lanes": null, "oneway": "yes", "bicycle": null, "maxspeed": 40.2335}, "Henry Hudson Bridge": {"highway": "motorway", "maxspeed": null, "oneway": "yes", "lanes": "3", "bicycle": null}, "Rutgers Street": {"highway": "residential", "lanes": null, "oneway": "yes", "bicycle": null, "maxspeed": 40.2335}, "East 24th Street": {"highway": "unclassified", "lanes": null, "oneway": "yes", "bicycle": null, "maxspeed": 40.2335}, "West 13th Street": {"highway": "unclassified", "lanes": null, "oneway": "yes", "bicycle": null, "maxspeed": 40.2335}, "43rd Street": {"highway": "residential", "maxspeed": null, "oneway": "no", "lanes": "2", "bicycle": null}, "East 19th Street": {"highway": "residential", "lanes": null, "oneway": "yes", "bicycle": null, "maxspeed": 40.2335}, "West 33 Street": {"bicycle": null, "highway": "unclassified", "oneway": "yes", "lanes": "1", "maxspeed": 40.2335}, "Queensboro Bridge Outer Roadway": {"highway": "motorway", "maxspeed": null, "oneway": "yes", "lanes": "1", "bicycle": null}, "East 31st Street": {"highway": "tertiary", "lanes": null, "oneway": "yes", "bicycle": null, "maxspeed": 40.2335}, "New Jersey Turnpike": {"highway": "motorway", "maxspeed": null, "bicycle": "no", "lanes": "4", "oneway": "yes"}, "Lafayette Plaza": {"highway": "secondary", "maxspeed": null, "bicycle": "designated", "lanes": null, "oneway": "yes"}, "Long Island Expressway": {"highway": "motorway", "maxspeed": null, "bicycle": "no", "lanes": "3", "oneway": "yes"}, "West 78th Street": {"highway": "cycleway", "maxspeed": null, "bicycle": "yes", "lanes": null, "oneway": "yes"}, "Mulberry Street": {"highway": "residential", "lanes": null, "oneway": "yes", "bicycle": null, "maxspeed": 40.2335}, "Wythe Avenue": {"highway": "residential", "maxspeed": null, "bicycle": "yes", "lanes": null, "oneway": "yes"}, "West 44th Street": {"highway": "unclassified", "maxspeed": null, "bicycle": "yes", "lanes": null, "oneway": "yes"}, "Pell Street": {"highway": "residential", "lanes": null, "oneway": "yes", "bicycle": null, "maxspeed": 40.2335}, "Hanover Square": {"highway": "residential", "lanes": null, "oneway": "no", "bicycle": null, "maxspeed": 40.2335}, "East 29th Street": {"highway": "unclassified", "maxspeed": null, "bicycle": "yes", "lanes": null, "oneway": "yes"}, "Renwick Street": {"highway": "residential", "lanes": null, "oneway": "yes", "bicycle": null, "maxspeed": 40.2335}, "Tunnel Exit Street": {"bicycle": null, "highway": "primary", "oneway": "yes", "lanes": "3", "maxspeed": 40.2335}, "Lexington Avenue": {"highway": "secondary", "lanes": null, "oneway": "yes", "bicycle": null, "maxspeed": 40.2335}, "Harlem River Driveway": {"highway": "tertiary", "maxspeed": null, "oneway": "no", "lanes": "4", "bicycle": null}, "West 30th Street / West 33 Street": {"highway": "motorway", "maxspeed": null, "oneway": "reversible", "lanes": "2", "bicycle": null}, "West 12th Street": {"highway": "unclassified", "lanes": null, "oneway": "yes", "bicycle": null, "maxspeed": 40.2335}, "West 32nd Street": {"highway": "unclassified", "lanes": null, "oneway": "yes", "bicycle": null, "maxspeed": 40.2335}, "Division Avenue": {"highway": "residential", "maxspeed": null, "bicycle": "designated", "lanes": null, "oneway": "no"}, "Rainey Park Esplanade": {"highway": "cycleway", "maxspeed": null, "bicycle": "yes", "lanes": null, "oneway": "no"}, "West 31st Street": {"highway": "tertiary", "lanes": null, "oneway": "yes", "bicycle": null, "maxspeed": 40.2335}, "Morningside Drive": {"highway": "secondary", "maxspeed": null, "oneway": "no", "lanes": "2", "bicycle": null}, "Park Avenue South": {"highway": "secondary", "lanes": null, "oneway": "yes", "bicycle": null, "maxspeed": 40.2335}, "West 8th Street": {"highway": "secondary", "lanes": null, "oneway": "yes", "bicycle": null, "maxspeed": 40.2335}, "West 50th Street": {"highway": "secondary", "maxspeed": null, "oneway": "yes", "lanes": "3", "bicycle": null}, "West 42nd Street": {"highway": "primary", "lanes": null, "oneway": "no", "bicycle": null, "maxspeed": 40.2335}, "Dey Street": {"highway": "unclassified", "lanes": null, "oneway": "yes", "bicycle": null, "maxspeed": 40.2335}, "Third Avenue Bridge": {"highway": "primary", "maxspeed": null, "oneway": "yes", "lanes": "5", "bicycle": null}, "Saint Mark's Place": {"highway": "residential", "lanes": null, "oneway": "yes", "bicycle": null, "maxspeed": 32.1868}, "Exchange Place": {"highway": "residential", "lanes": null, "oneway": "yes", "bicycle": null, "maxspeed": 40.2335}, "Norman Avenue": {"highway": "residential", "lanes": null, "oneway": "no", "bicycle": null, "maxspeed": 40.2335}, "Charlton Street": {"highway": "residential", "oneway": "yes", "bicycle": "yes", "lanes": null, "maxspeed": 40.2335}, "Bridge Street": {"bicycle": null, "highway": "unclassified", "oneway": "yes", "lanes": "1", "maxspeed": 40.2335}, "Jones Street": {"highway": "unclassified", "lanes": null, "oneway": "yes", "bicycle": null, "maxspeed": 40.2335}, "Commerce Street": {"highway": "unclassified", "lanes": null, "oneway": "yes", "bicycle": null, "maxspeed": 32.1868}, "Mott Street": {"highway": "residential", "lanes": null, "oneway": "yes", "bicycle": null, "maxspeed": 40.2335}, "East 90th Street": {"highway": "cycleway", "maxspeed": null, "bicycle": "destination", "lanes": "2", "oneway": "no"}, "Classon Avenue": {"bicycle": null, "highway": "secondary", "oneway": "yes", "lanes": "2", "maxspeed": 40.2335}, "Macombs Road": {"highway": "residential", "maxspeed": null, "bicycle": "yes", "lanes": null, "oneway": "yes"}, "2nd Street": {"highway": "residential", "maxspeed": null, "oneway": "yes", "lanes": "1", "bicycle": null}, "East 18th Street": {"highway": "residential", "lanes": null, "oneway": "yes", "bicycle": null, "maxspeed": 40.2335}, "Queensboro Bridge Approach": {"highway": "primary", "maxspeed": null, "bicycle": "no", "lanes": null, "oneway": "yes"}, "Queensboro Plaza": {"highway": "trunk", "maxspeed": null, "oneway": "yes", "lanes": "2", "bicycle": null}, "West 20th Street": {"highway": "residential", "oneway": "yes", "bicycle": "yes", "lanes": null, "maxspeed": 40.2335}, "Henry Hudson Drive": {"highway": "unclassified", "maxspeed": null, "bicycle": "yes", "lanes": null, "oneway": "no"}, "East 55th Street": {"highway": "unclassified", "maxspeed": null, "bicycle": "yes", "lanes": null, "oneway": "yes"}, "Gramercy Park North": {"highway": "residential", "lanes": null, "oneway": "yes", "bicycle": null, "maxspeed": 40.2335}, "Brooklyn Queens Expressway": {"highway": "motorway", "oneway": "yes", "bicycle": "no", "lanes": "3", "maxspeed": 64.3736}, "East 120th Street": {"highway": "residential", "maxspeed": null, "bicycle": "yes", "lanes": null, "oneway": "yes"}, "Barclay Street": {"bicycle": null, "highway": "secondary", "oneway": "yes", "lanes": "1", "maxspeed": 40.2335}, "North End Avenue": {"highway": "unclassified", "lanes": null, "oneway": "yes", "bicycle": null, "maxspeed": 40.2335}, "Smith Street": {"highway": "secondary", "maxspeed": null, "bicycle": "yes", "lanes": null, "oneway": "yes"}, "West 172nd Street": {"highway": "residential", "maxspeed": null, "oneway": "yes", "lanes": "1", "bicycle": null}, "Bialystoker Place": {"highway": "residential", "lanes": null, "oneway": "yes", "bicycle": null, "maxspeed": 40.2335}, "East 30th Street": {"highway": "unclassified", "lanes": null, "oneway": "yes", "bicycle": null, "maxspeed": 40.2335}, "Crosby Street": {"highway": "residential", "lanes": null, "oneway": "yes", "bicycle": null, "maxspeed": 40.2335}, "Hubert Street": {"highway": "residential", "lanes": null, "oneway": "yes", "bicycle": null, "maxspeed": 40.2335}, "East 39th Street": {"highway": "residential", "maxspeed": null, "bicycle": "yes", "lanes": null, "oneway": "yes"}, "Edward L. Grant Highway": {"highway": "secondary", "maxspeed": null, "bicycle": "yes", "lanes": null, "oneway": "yes"}, "South 5th Place": {"highway": "residential", "maxspeed": null, "bicycle": "yes", "lanes": null, "oneway": "yes"}, "Peter Cooper Road": {"highway": "residential", "lanes": null, "oneway": "yes", "bicycle": null, "maxspeed": 40.2335}, "East 8th Street": {"bicycle": null, "highway": "residential", "oneway": "yes", "lanes": "2", "maxspeed": 40.2335}, "Ryerson Street": {"highway": "unclassified", "maxspeed": null, "bicycle": "yes", "lanes": null, "oneway": "no"}, "Hoyt Avenue North": {"highway": "secondary", "maxspeed": null, "bicycle": "yes", "lanes": null, "oneway": "yes"}, "John Finley Walk": {"highway": "cycleway", "maxspeed": null, "oneway": "no", "lanes": "2", "bicycle": null}, "Adams Street": {"highway": "primary", "maxspeed": null, "oneway": "yes", "lanes": "3", "bicycle": null}, "West 57th Street": {"highway": "primary", "lanes": null, "oneway": "no", "bicycle": null, "maxspeed": 40.2335}, "West 52nd Street": {"bicycle": null, "highway": "residential", "oneway": "yes", "lanes": "1", "maxspeed": 40.2335}, "East 33rd Street": {"highway": "unclassified", "lanes": null, "oneway": "yes", "bicycle": null, "maxspeed": 40.2335}, "Gold Street": {"highway": "residential", "lanes": null, "oneway": "no", "bicycle": null, "maxspeed": 40.2335}, "Queens-Midtown Tunnel": {"highway": "motorway", "oneway": "yes", "bicycle": "no", "lanes": "2", "maxspeed": 64.3736}, "West 27th Street": {"highway": "unclassified", "lanes": null, "oneway": "yes", "bicycle": null, "maxspeed": 40.2335}, "Meserole Avenue": {"highway": "residential", "lanes": null, "oneway": "yes", "bicycle": null, "maxspeed": 40.2335}, "Ed Koch Queensboro Bridge Outer Roadway": {"bicycle": null, "highway": "motorway", "oneway": "yes", "lanes": "1", "maxspeed": 48.2802}, "Mitchell Place": {"highway": "residential", "maxspeed": null, "oneway": "yes", "lanes": "1", "bicycle": null}, "South Broad Avenue": {"highway": "primary", "maxspeed": null, "oneway": "yes", "lanes": "3", "bicycle": null}, "Queensboro Bridge (Lower Level)": {"highway": "motorway", "maxspeed": null, "oneway": "yes", "lanes": "2", "bicycle": null}, "Williamsburg Street West": {"highway": "secondary", "lanes": null, "oneway": "yes", "bicycle": null, "maxspeed": 40.2335}, "Pacific Street": {"highway": "residential", "maxspeed": null, "bicycle": "yes", "lanes": null, "oneway": "yes"}, "Lincoln Tunnel": {"highway": "motorway", "maxspeed": null, "bicycle": "no", "lanes": "2", "oneway": "yes"}, "Brooklyn-Queens Expressway": {"highway": "motorway", "oneway": "yes", "bicycle": "no", "lanes": "2", "maxspeed": 72.4203}, "William Street": {"highway": "unclassified", "lanes": null, "oneway": "yes", "bicycle": null, "maxspeed": 40.2335}, "West 77th Street": {"highway": "residential", "maxspeed": null, "bicycle": "yes", "lanes": null, "oneway": "yes"}, "Stanton Street": {"highway": "residential", "oneway": "yes", "bicycle": "yes", "lanes": null, "maxspeed": 40.2335}, "Elk Street": {"highway": "residential", "lanes": null, "oneway": "yes", "bicycle": null, "maxspeed": 40.2335}, "Doyers Street": {"highway": "residential", "lanes": null, "oneway": "yes", "bicycle": null, "maxspeed": 40.2335}, "Downing Street": {"highway": "residential", "lanes": null, "oneway": "yes", "bicycle": null, "maxspeed": 40.2335}, "Ann Street": {"bicycle": null, "highway": "residential", "oneway": "yes", "lanes": "1", "maxspeed": 40.2335}, "Trans-Manhattan Expressway": {"highway": "motorway", "maxspeed": null, "bicycle": "no", "lanes": "3", "oneway": "yes"}, "Minetta Street": {"highway": "residential", "lanes": null, "oneway": "yes", "bicycle": null, "maxspeed": 40.2335}, "Mackay Highway": {"highway": "trunk", "maxspeed": null, "oneway": "yes", "lanes": "2", "bicycle": null}, "Washington Street": {"highway": "residential", "lanes": null, "oneway": "yes", "bicycle": null, "maxspeed": 40.2335}, "George Washington Bridge (upper level)": {"highway": "motorway", "maxspeed": null, "bicycle": "no", "lanes": "4", "oneway": "yes"}, "Saint John's Lane": {"highway": "residential", "lanes": null, "oneway": "yes", "bicycle": null, "maxspeed": 40.2335}, "Melrose Avenue": {"highway": "secondary", "maxspeed": null, "bicycle": "yes", "lanes": null, "oneway": "no"}, "Henry Street": {"highway": "residential", "lanes": null, "oneway": "yes", "bicycle": null, "maxspeed": 40.2335}, "Dutch Street": {"highway": "unclassified", "lanes": null, "oneway": "yes", "bicycle": null, "maxspeed": 40.2335}, "Atlantic Avenue": {"highway": "residential", "maxspeed": null, "oneway": "no", "lanes": "3", "bicycle": null}, "Commercial Street": {"highway": "secondary", "maxspeed": null, "bicycle": "yes", "lanes": null, "oneway": "yes"}, "11th Place": {"highway": "primary", "maxspeed": null, "bicycle": "designated", "lanes": "1", "oneway": "yes"}, "FDR Drive": {"highway": "primary", "lanes": null, "oneway": "yes", "bicycle": null, "maxspeed": 40.2335}, "Jersey Street": {"highway": "residential", "lanes": null, "oneway": "yes", "bicycle": null, "maxspeed": 40.2335}, "Centre Market Place": {"highway": "residential", "lanes": null, "oneway": "yes", "bicycle": null, "maxspeed": 40.2335}, "Freeman Street": {"highway": "residential", "maxspeed": null, "bicycle": "yes", "lanes": null, "oneway": "yes"}, "East 23rd Street": {"bicycle": null, "highway": "secondary", "oneway": "no", "lanes": "4", "maxspeed": 40.2335}, "George Washington Bridge (lower level)": {"highway": "motorway", "maxspeed": null, "bicycle": "no", "lanes": "3", "oneway": "yes"}, "Ed KochQueensboro Bridge Outer Roadway": {"highway": "motorway", "maxspeed": null, "oneway": "yes", "lanes": "1", "bicycle": null}, "Horatio Street": {"highway": "unclassified", "lanes": null, "oneway": "yes", "bicycle": null, "maxspeed": 40.2335}, "West 47th Street": {"highway": "residential", "lanes": null, "oneway": "yes", "bicycle": null, "maxspeed": 40.2335}, "Christopher Street": {"highway": "residential", "oneway": "yes", "bicycle": "yes", "lanes": null, "maxspeed": 40.2335}, "Church Street": {"highway": "secondary", "lanes": null, "oneway": "yes", "bicycle": null, "maxspeed": 40.2335}, "Rutgers Slip": {"highway": "residential", "lanes": null, "oneway": "yes", "bicycle": null, "maxspeed": 40.2335}, "Cabrini Boulevard": {"highway": "residential", "maxspeed": null, "bicycle": "designated", "lanes": null, "oneway": "yes"}, "Franklin Avenue": {"highway": "residential", "maxspeed": null, "bicycle": "yes", "lanes": null, "oneway": "yes"}, "Manhattan Bridge": {"highway": "primary", "oneway": "yes", "bicycle": "no", "lanes": null, "maxspeed": 56.3269}, "Margaret Corbin Plaza": {"highway": "unclassified", "maxspeed": null, "bicycle": "yes", "lanes": null, "oneway": "yes"}, "Leonard Street": {"highway": "residential", "oneway": "yes", "bicycle": "yes", "lanes": null, "maxspeed": 40.2335}, "East 167th Street": {"highway": "residential", "maxspeed": null, "bicycle": "yes", "lanes": null, "oneway": "yes"}, "Russell Street": {"highway": "residential", "lanes": null, "oneway": "yes", "bicycle": null, "maxspeed": 40.2335}, "Abingdon Square": {"highway": "secondary", "oneway": "yes", "bicycle": "yes", "lanes": "3", "maxspeed": 40.2335}, "Williamsburg Bridge": {"bicycle": null, "highway": "motorway", "oneway": "yes", "lanes": "2", "maxspeed": 56.3269}, "East 73rd Street": {"highway": "residential", "maxspeed": null, "oneway": "yes", "lanes": "1", "bicycle": null}, "East Broadway": {"highway": "secondary", "oneway": "no", "bicycle": "yes", "lanes": null, "maxspeed": 40.2335}, "Herman \u201cDenny\u201d Farrell Pedestrian Bridge": {"highway": "cycleway", "maxspeed": null, "bicycle": "yes", "lanes": null, "oneway": "no"}, "Whipple Street": {"highway": "residential", "maxspeed": null, "bicycle": "designated", "lanes": null, "oneway": "yes"}, "West 40th Street": {"highway": "unclassified", "maxspeed": null, "bicycle": "yes", "lanes": null, "oneway": "yes"}, "Park Avenue Tunnel": {"highway": "secondary", "oneway": "yes", "bicycle": "no", "lanes": null, "maxspeed": 40.2335}, "Laight Street": {"highway": "primary", "lanes": null, "oneway": "yes", "bicycle": null, "maxspeed": 40.2335}, "Broad Street": {"bicycle": null, "highway": "unclassified", "oneway": "no", "lanes": "2", "maxspeed": 40.2335}, "Astoria Park Greenway": {"highway": "cycleway", "maxspeed": null, "bicycle": "yes", "lanes": null, "oneway": "no"}, "Morris Avenue": {"highway": "secondary", "maxspeed": null, "bicycle": "yes", "lanes": null, "oneway": "yes"}, "West 54th Street": {"highway": "secondary", "oneway": null, "bicycle": "yes", "lanes": "3", "maxspeed": null}, "47th Avenue": {"highway": "residential", "maxspeed": null, "bicycle": "designated", "lanes": null, "oneway": "no"}, "West 21st Street": {"highway": "residential", "lanes": null, "oneway": "yes", "bicycle": null, "maxspeed": 40.2335}, "Whitehall Street": {"highway": "residential", "lanes": null, "oneway": "yes", "bicycle": null, "maxspeed": 40.2335}, "Greenwich Street": {"highway": "residential", "lanes": null, "oneway": "yes", "bicycle": null, "maxspeed": 40.2335}, "East 137th Street": {"highway": "secondary", "maxspeed": null, "oneway": "yes", "lanes": "1", "bicycle": null}, "Roosevelt Island Greenway": {"highway": "cycleway", "oneway": null, "bicycle": "yes", "lanes": "2", "maxspeed": null}, "Old Slip": {"highway": "cycleway", "maxspeed": null, "bicycle": "yes", "lanes": null, "oneway": "yes"}, "East 13th Street": {"bicycle": null, "highway": "residential", "oneway": "yes", "lanes": "2", "maxspeed": 40.2335}, "Hanover Street": {"highway": "residential", "lanes": null, "oneway": "yes", "bicycle": null, "maxspeed": 40.2335}, "Margaret Corbin Drive": {"highway": "unclassified", "maxspeed": null, "bicycle": "yes", "lanes": null, "oneway": "no"}, "Father Damien Way": {"highway": "unclassified", "lanes": null, "oneway": "yes", "bicycle": null, "maxspeed": 40.2335}, "East 105th Street": {"highway": "residential", "lanes": null, "oneway": "yes", "bicycle": null, "maxspeed": 32.1868}, "Van Brunt Street": {"highway": "secondary", "lanes": null, "oneway": "no", "bicycle": null, "maxspeed": 40.2335}, "Gramercy Park South": {"highway": "residential", "lanes": null, "oneway": "yes", "bicycle": null, "maxspeed": 40.2335}, "Boerum Place": {"highway": "primary", "maxspeed": null, "bicycle": "yes", "lanes": null, "oneway": "yes"}, "Clinton Street": {"highway": "residential", "oneway": null, "bicycle": "yes", "lanes": null, "maxspeed": 40.2335}, "Nassau Street": {"highway": "residential", "lanes": null, "oneway": "yes", "bicycle": null, "maxspeed": 40.2335}, "Cortlandt Street": {"highway": "unclassified", "lanes": null, "oneway": "yes", "bicycle": null, "maxspeed": 40.2335}, "West 177th Street": {"highway": "residential", "maxspeed": null, "bicycle": "designated", "lanes": null, "oneway": "yes"}, "Pike Slip": {"highway": "primary", "lanes": null, "oneway": "yes", "bicycle": null, "maxspeed": 40.2335}, "Queensboro Bridge (Upper Level)": {"highway": "motorway", "maxspeed": null, "oneway": "yes", "lanes": "2", "bicycle": null}, "West 10th Street": {"highway": "unclassified", "oneway": "yes", "bicycle": "yes", "lanes": null, "maxspeed": 40.2335}, "Platt Street": {"highway": "unclassified", "lanes": null, "oneway": "yes", "bicycle": null, "maxspeed": 40.2335}, "Borinquen Place": {"highway": "primary", "maxspeed": null, "bicycle": "yes", "lanes": null, "oneway": "yes"}, "East 48th Street": {"highway": "residential", "maxspeed": null, "bicycle": "yes", "lanes": null, "oneway": "yes"}, "7th Avenue": {"highway": "secondary", "lanes": null, "oneway": "yes", "bicycle": null, "maxspeed": 40.2335}, "4th Avenue": {"highway": "secondary", "oneway": "yes", "bicycle": "yes", "lanes": null, "maxspeed": 40.2335}, "West 23rd Street": {"highway": "secondary", "oneway": null, "bicycle": null, "lanes": "4", "maxspeed": 40.2335}, "Pine Street": {"highway": "residential", "lanes": null, "oneway": "yes", "bicycle": null, "maxspeed": 40.2335}, "Queensboro Bridge lower level": {"highway": "motorway", "maxspeed": null, "oneway": "yes", "lanes": "2", "bicycle": null}, "Olmstead and Vaux Way": {"highway": "unclassified", "oneway": "yes", "bicycle": "yes", "lanes": null, "maxspeed": 32.1868}, "45th Road": {"highway": "residential", "maxspeed": null, "oneway": "yes", "lanes": "1", "bicycle": null}, "Dyer Avenue": {"highway": "primary", "lanes": null, "oneway": "yes", "bicycle": null, "maxspeed": 40.2335}, "Desbrosses Street": {"highway": "residential", "lanes": null, "oneway": "yes", "bicycle": null, "maxspeed": 40.2335}, "Robert F. Kennedy Bridge": {"highway": "motorway", "maxspeed": null, "oneway": "yes", "lanes": "3", "bicycle": null}, "Vandam Street": {"bicycle": null, "highway": "residential", "oneway": "yes", "lanes": "1", "maxspeed": 40.2335}, "Henry Hudson Parkway": {"highway": "motorway", "maxspeed": null, "oneway": "yes", "lanes": "3", "bicycle": null}, "Columbus Circle": {"bicycle": null, "highway": "primary", "oneway": "yes", "lanes": "3", "maxspeed": 40.2335}, "48th Street": {"highway": "tertiary", "oneway": null, "bicycle": "yes", "lanes": "2", "maxspeed": 32.1868}, "West 16th Street": {"highway": "residential", "lanes": null, "oneway": "yes", "bicycle": null, "maxspeed": 40.2335}, "Beach Street": {"highway": "primary", "lanes": null, "oneway": "yes", "bicycle": null, "maxspeed": 40.2335}, "Schermerhorn Street": {"highway": "residential", "maxspeed": null, "bicycle": "yes", "lanes": null, "oneway": "yes"}, "Gramercy Park West": {"highway": "residential", "lanes": null, "oneway": "yes", "bicycle": null, "maxspeed": 40.2335}, "Pearl Street": {"highway": "residential", "lanes": null, "oneway": "yes", "bicycle": null, "maxspeed": 40.2335}, "Lincoln Tunnel access": {"highway": "motorway", "maxspeed": null, "oneway": "yes", "lanes": "2", "bicycle": null}, "East 40th Street": {"highway": "unclassified", "maxspeed": null, "bicycle": "yes", "lanes": null, "oneway": "yes"}, "Centre Street": {"highway": "secondary", "lanes": null, "oneway": "yes", "bicycle": null, "maxspeed": 40.2335}, "29th Street": {"highway": "residential", "maxspeed": null, "oneway": "yes", "lanes": "1", "bicycle": null}, "Ed Koch Queensboro Bridge Lower Level": {"highway": "motorway", "maxspeed": null, "oneway": "yes", "lanes": "2", "bicycle": null}, "Norfolk Street": {"highway": "residential", "lanes": null, "oneway": "yes", "bicycle": null, "maxspeed": 40.2335}, "20th Street Loop": {"highway": "residential", "lanes": null, "oneway": "yes", "bicycle": null, "maxspeed": 40.2335}, "East 119th Street": {"highway": "residential", "maxspeed": null, "bicycle": "yes", "lanes": null, "oneway": "yes"}, "Gouverneur Street": {"highway": "residential", "lanes": null, "oneway": "yes", "bicycle": null, "maxspeed": 40.2335}, "Cross Bronx Expressway": {"highway": "motorway", "oneway": "yes", "bicycle": "no", "lanes": "3", "maxspeed": 80.467}, "Sherman Avenue": {"highway": "secondary", "maxspeed": null, "oneway": "no", "lanes": "4", "bicycle": null}, "Lincoln Tunnel Helix": {"highway": "motorway", "maxspeed": null, "oneway": "yes", "lanes": "3", "bicycle": null}, "West 18th Street": {"highway": "unclassified", "lanes": null, "oneway": "yes", "bicycle": null, "maxspeed": 40.2335}, "86th Street Transverse Road (Det. Steven McDonald Way)": {"highway": "secondary", "oneway": "no", "bicycle": "yes", "lanes": "2", "maxspeed": 40.2335}, "East 3rd Street": {"highway": "residential", "lanes": null, "oneway": "yes", "bicycle": null, "maxspeed": 32.1868}, "Holland Tunnel exit": {"highway": "motorway", "oneway": "yes", "bicycle": "no", "lanes": "3", "maxspeed": 56.3269}, "West 29th Street": {"highway": "unclassified", "oneway": "yes", "bicycle": "yes", "lanes": null, "maxspeed": 40.2335}, "Mount Carmel Place": {"highway": "residential", "lanes": null, "oneway": "yes", "bicycle": null, "maxspeed": 40.2335}, "Park Avenue": {"highway": "secondary", "maxspeed": null, "oneway": "yes", "lanes": "3", "bicycle": null}, "Pike Street": {"highway": "primary", "oneway": "yes", "bicycle": "yes", "lanes": null, "maxspeed": 40.2335}, "Charles Street": {"highway": "unclassified", "lanes": null, "oneway": "yes", "bicycle": null, "maxspeed": 40.2335}, "Bergen Street": {"highway": "residential", "maxspeed": null, "bicycle": "yes", "lanes": null, "oneway": "yes"}, "Vesey Street": {"highway": "unclassified", "oneway": null, "bicycle": "yes", "lanes": null, "maxspeed": 40.2335}, "34th Avenue": {"highway": "residential", "maxspeed": null, "bicycle": "yes", "lanes": null, "oneway": "no"}, "Frankfort Street": {"highway": "secondary", "lanes": null, "oneway": "yes", "bicycle": null, "maxspeed": 40.2335}, "12th Avenue": {"highway": "trunk", "maxspeed": null, "oneway": "yes", "lanes": "4", "bicycle": null}, "Ridge Street": {"highway": "residential", "lanes": null, "oneway": "yes", "bicycle": null, "maxspeed": 40.2335}, "Jay Street": {"highway": "secondary", "maxspeed": null, "bicycle": "yes", "lanes": null, "oneway": "no"}, "Center Drive": {"highway": "unclassified", "maxspeed": null, "bicycle": "yes", "lanes": null, "oneway": "yes"}, "Harlem River Drive": {"highway": "cycleway", "oneway": null, "bicycle": "yes", "lanes": "2", "maxspeed": null}, "West 9th Street": {"highway": "residential", "oneway": "yes", "bicycle": "yes", "lanes": null, "maxspeed": 40.2335}, "West 139th Street": {"bicycle": null, "highway": "residential", "oneway": "yes", "lanes": "1", "maxspeed": 40.2335}, "Main Avenue": {"highway": "secondary", "lanes": null, "oneway": "yes", "bicycle": null, "maxspeed": 40.2335}, "Berry Street": {"highway": "residential", "maxspeed": null, "bicycle": "yes", "lanes": null, "oneway": "yes"}, "First Avenue Loop": {"highway": "residential", "lanes": null, "oneway": "yes", "bicycle": null, "maxspeed": 40.2335}, "Gramercy Park East": {"highway": "residential", "lanes": null, "oneway": "yes", "bicycle": null, "maxspeed": 40.2335}, "MacDougal Street": {"highway": "unclassified", "lanes": null, "oneway": "yes", "bicycle": null, "maxspeed": 40.2335}, "Minetta Lane": {"highway": "residential", "lanes": null, "oneway": "yes", "bicycle": null, "maxspeed": 40.2335}, "Brooklyn Bridge Park Greenway": {"highway": "cycleway", "oneway": null, "bicycle": "yes", "lanes": "2", "maxspeed": null}, "Randalls Island Greenway": {"highway": "cycleway", "oneway": null, "bicycle": "yes", "lanes": "2", "maxspeed": null}, "Northern Boulevard": {"highway": "primary", "maxspeed": null, "oneway": "no", "lanes": "5", "bicycle": null}, "Dean Street": {"highway": "residential", "maxspeed": null, "bicycle": "yes", "lanes": null, "oneway": "yes"}, "Jackson Avenue": {"highway": "primary", "maxspeed": null, "oneway": "no", "lanes": "4", "bicycle": null}, "Great Jones Street": {"highway": "residential", "lanes": null, "oneway": "yes", "bicycle": null, "maxspeed": 40.2335}, "Fulton Mall": {"highway": "residential", "maxspeed": null, "bicycle": "yes", "lanes": null, "oneway": "no"}, "Moultrie Street": {"highway": "residential", "lanes": null, "oneway": "yes", "bicycle": null, "maxspeed": 40.2335}, "West 15th Street": {"highway": "residential", "lanes": null, "oneway": "yes", "bicycle": null, "maxspeed": 40.2335}, "79th Street Transverse Road": {"highway": "secondary", "oneway": "no", "bicycle": "yes", "lanes": "4", "maxspeed": 40.2335}, "Bank Street": {"highway": "unclassified", "lanes": null, "oneway": "yes", "bicycle": null, "maxspeed": 40.2335}, "Gen. Douglas MacArthur Plaza": {"highway": "residential", "lanes": null, "oneway": "yes", "bicycle": null, "maxspeed": 48.2802}, "Fulton Street": {"highway": "unclassified", "lanes": null, "oneway": "yes", "bicycle": null, "maxspeed": 40.2335}, "Montgomery Street": {"highway": "residential", "lanes": null, "oneway": "yes", "bicycle": null, "maxspeed": 40.2335}, "Crescent Street": {"bicycle": null, "highway": "tertiary", "oneway": "yes", "lanes": "1", "maxspeed": 32.1868}, "46th Road": {"highway": "residential", "maxspeed": null, "oneway": "yes", "lanes": "1", "bicycle": null}, "Hudson Terrace": {"highway": "primary", "maxspeed": null, "bicycle": "designated", "lanes": null, "oneway": "no"}, "East 81st Street": {"highway": "residential", "lanes": null, "oneway": "yes", "bicycle": null, "maxspeed": 64.3736}, "East 5th Street": {"highway": "residential", "lanes": null, "oneway": "yes", "bicycle": null, "maxspeed": 32.1868}, "Brooklyn Bridge": {"bicycle": null, "highway": "motorway", "oneway": "yes", "lanes": "2", "maxspeed": 48.2802}, "Jewel Street": {"highway": "residential", "lanes": null, "oneway": "yes", "bicycle": null, "maxspeed": 40.2335}, "Joe DiMaggio Highway": {"highway": "motorway", "maxspeed": null, "oneway": "yes", "lanes": "3", "bicycle": null}, "Wanamaker Place": {"highway": "residential", "oneway": "yes", "bicycle": "yes", "lanes": null, "maxspeed": 40.2335}, "Queens Plaza North": {"highway": "tertiary", "maxspeed": null, "oneway": "yes", "lanes": "1", "bicycle": null}, "North Cove": {"highway": "cycleway", "oneway": null, "bicycle": "yes", "lanes": "2", "maxspeed": null}, "11th Street": {"highway": "residential", "maxspeed": null, "oneway": "yes", "lanes": "1", "bicycle": null}, "Sumner Place": {"highway": "residential", "lanes": null, "oneway": "yes", "bicycle": null, "maxspeed": 40.2335}, "East 9th Street": {"highway": "residential", "oneway": "yes", "bicycle": "yes", "lanes": null, "maxspeed": 32.1868}, "Union Square East": {"highway": "secondary", "lanes": null, "oneway": "yes", "bicycle": null, "maxspeed": 40.2335}, "Sheriff Street": {"highway": "residential", "lanes": null, "oneway": "yes", "bicycle": null, "maxspeed": 40.2335}, "West 160th Street": {"highway": "secondary", "maxspeed": null, "bicycle": "yes", "lanes": null, "oneway": "yes"}, "East 21st Street": {"highway": "residential", "maxspeed": null, "bicycle": "yes", "lanes": null, "oneway": "yes"}, "Avenue C": {"highway": "primary", "lanes": null, "oneway": "no", "bicycle": null, "maxspeed": 40.2335}, "West 14th Street": {"highway": "primary", "lanes": null, "oneway": "no", "bicycle": null, "maxspeed": 40.2335}, "Bruckner Expressway": {"highway": "motorway", "oneway": "yes", "bicycle": "no", "lanes": "2", "maxspeed": 80.467}, "Abraham Kazan Street": {"highway": "residential", "lanes": null, "oneway": "yes", "bicycle": null, "maxspeed": 40.2335}, "Kane Street": {"highway": "residential", "maxspeed": null, "bicycle": "yes", "lanes": null, "oneway": "yes"}, "29th Avenue": {"highway": "residential", "lanes": null, "oneway": "yes", "bicycle": null, "maxspeed": 40.2335}, "Ditmars Boulevard": {"highway": "tertiary", "maxspeed": null, "oneway": "no", "lanes": "2", "bicycle": null}, "Hudson River Greenway": {"highway": "cycleway", "oneway": null, "bicycle": "yes", "lanes": "2", "maxspeed": null}, "Cherry Street": {"highway": "residential", "lanes": null, "oneway": "yes", "bicycle": null, "maxspeed": 40.2335}, "Queens Plaza South": {"highway": "tertiary", "maxspeed": null, "oneway": "yes", "lanes": "1", "bicycle": null}, "East Houston Street": {"highway": "primary", "oneway": "yes", "bicycle": "yes", "lanes": null, "maxspeed": 40.2335}, "West 17th Street": {"highway": "residential", "lanes": null, "oneway": "yes", "bicycle": null, "maxspeed": 40.2335}, "Fort Washington Avenue": {"highway": "tertiary", "oneway": "yes", "bicycle": "yes", "lanes": "1", "maxspeed": 32.1868}, "54th Avenue": {"highway": "residential", "maxspeed": null, "oneway": "yes", "lanes": "2", "bicycle": null}, "Hugh L. Carey Tunnel": {"highway": "motorway", "oneway": "yes", "bicycle": "no", "lanes": "2", "maxspeed": 64.3736}, "DeKalb Avenue": {"highway": "secondary", "maxspeed": null, "bicycle": "yes", "lanes": null, "oneway": "yes"}, "Carlisle Street": {"bicycle": null, "highway": "residential", "oneway": "yes", "lanes": "1", "maxspeed": 40.2335}, "Winant Avenue": {"highway": "trunk", "maxspeed": null, "oneway": "yes", "lanes": "2", "bicycle": null}, "River Avenue": {"highway": "secondary", "maxspeed": null, "oneway": "no", "lanes": "4", "bicycle": null}, "East 43rd Street": {"highway": "residential", "maxspeed": null, "bicycle": "yes", "lanes": null, "oneway": "yes"}, "Bethune Street": {"highway": "residential", "lanes": null, "oneway": "yes", "bicycle": null, "maxspeed": 40.2335}, "Joseph P. Ward Street": {"highway": "residential", "lanes": null, "oneway": "yes", "bicycle": null, "maxspeed": 40.2335}, "East 172nd Street": {"highway": "residential", "maxspeed": null, "oneway": "yes", "lanes": "1", "bicycle": null}, "86th Street Transverse Road": {"bicycle": null, "highway": "secondary", "oneway": "yes", "lanes": "2", "maxspeed": 40.2335}, "Gerard Avenue": {"highway": "secondary", "maxspeed": null, "bicycle": "yes", "lanes": null, "oneway": "yes"}, "Unkown street name": {"highway": "road", "oneway": null, "bicycle": "private", "lanes": "2", "maxspeed": null}, "Palisades Interstate Parkway": {"bicycle": null, "highway": "motorway", "oneway": "yes", "lanes": "3", "maxspeed": 80.467}, "Grand Central Parkway": {"highway": "motorway", "oneway": "yes", "bicycle": "no", "lanes": "3", "maxspeed": 64.3736}, "25th Road": {"highway": "residential", "lanes": null, "oneway": "yes", "bicycle": null, "maxspeed": 40.2335}, "Navy Street": {"highway": "residential", "oneway": "no", "bicycle": "yes", "lanes": null, "maxspeed": 40.2335}, "Leroy Street": {"highway": "residential", "lanes": null, "oneway": "yes", "bicycle": null, "maxspeed": 40.2335}, "Samuel Dickstein Plaza": {"highway": "secondary", "oneway": null, "bicycle": "yes", "lanes": null, "maxspeed": 40.2335}, "Eckford Street": {"highway": "residential", "lanes": null, "oneway": "yes", "bicycle": null, "maxspeed": 40.2335}, "Banker Street": {"highway": "residential", "maxspeed": null, "bicycle": "yes", "lanes": null, "oneway": "yes"}, "West 19th Street": {"highway": "unclassified", "lanes": null, "oneway": "yes", "bicycle": null, "maxspeed": 40.2335}, "East 51st Street": {"highway": "residential", "maxspeed": null, "bicycle": "yes", "lanes": null, "oneway": "yes"}, "Driggs Avenue": {"highway": "residential", "maxspeed": null, "bicycle": "yes", "lanes": null, "oneway": "yes"}, "East 59th Street": {"highway": "residential", "maxspeed": null, "bicycle": "designated", "lanes": null, "oneway": "yes"}, "Holland Tunnel": {"highway": "motorway", "oneway": "yes", "bicycle": "no", "lanes": "2", "maxspeed": 56.3269}, "47th Road": {"highway": "residential", "maxspeed": null, "oneway": "yes", "lanes": "1", "bicycle": null}, "West 39th Street": {"highway": "residential", "maxspeed": null, "bicycle": "yes", "lanes": null, "oneway": "yes"}, "East 54th Street": {"highway": "secondary", "maxspeed": null, "bicycle": "yes", "lanes": null, "oneway": "yes"}, "East 139th Street": {"highway": "secondary", "maxspeed": null, "bicycle": "yes", "lanes": null, "oneway": "yes"}, "Ed Koch Bridge": {"highway": "motorway", "maxspeed": null, "oneway": "yes", "lanes": "2", "bicycle": null}}