{"Rue Claude-Gagn\u00e9": {"highway": "tertiary", "maxspeed": null, "bicycle": null, "lanes": "2", "oneway": "yes"}, "Avenue Wilderton": {"highway": "tertiary", "maxspeed": null, "bicycle": null, "lanes": "2", "oneway": "yes"}, "Avenue Lansdowne": {"highway": "residential", "maxspeed": null, "bicycle": null, "lanes": "2", "oneway": "yes"}, "29e Avenue": {"highway": "residential", "maxspeed": null, "bicycle": null, "lanes": "1", "oneway": "yes"}, "Place Beaudet": {"highway": "residential", "maxspeed": null, "bicycle": null, "lanes": "2", "oneway": "yes"}, "Rue Lavigne": {"highway": "residential", "maxspeed": null, "bicycle": null, "lanes": "1", "oneway": "yes"}, "Boulevard armand Frappier": {"highway": "residential", "maxspeed": null, "bicycle": null, "lanes": "1", "oneway": "yes"}, "Boulevard F\u00e9nelon": {"highway": "tertiary", "maxspeed": null, "bicycle": null, "lanes": "2", "oneway": "yes"}, "Avenue de Carillon": {"highway": "unclassified", "oneway": "yes", "bicycle": null, "lanes": "2", "maxspeed": "30"}, "Boulevard Alexis-Nihon": {"highway": "tertiary", "maxspeed": null, "bicycle": "yes", "lanes": null, "oneway": "yes"}, "Avenue Lockhart": {"highway": "residential", "maxspeed": null, "bicycle": null, "lanes": "2", "oneway": "no"}, "Glenwood Avenue": {"highway": "residential", "oneway": null, "bicycle": null, "lanes": "2", "maxspeed": "40"}, "Rue Chabot": {"highway": "residential", "maxspeed": null, "bicycle": null, "lanes": "1", "oneway": "yes"}, "Rue Cypihot": {"highway": "tertiary", "oneway": "no", "bicycle": null, "lanes": "2", "maxspeed": "50"}, "De 15 \u00e0 20 ouest (temp.)": {"highway": "construction", "maxspeed": null, "bicycle": null, "lanes": "2", "oneway": "yes"}, "Avenue Seymour": {"highway": "residential", "maxspeed": null, "bicycle": null, "lanes": "1", "oneway": "yes"}, "15 sud / 20 est": {"highway": "construction", "maxspeed": null, "bicycle": null, "lanes": "3", "oneway": "yes"}, "Rue Favreau": {"highway": "residential", "oneway": null, "bicycle": null, "lanes": "2", "maxspeed": "50"}, "Avenue Prince-of-Wales": {"highway": "residential", "maxspeed": null, "bicycle": null, "lanes": "1", "oneway": "yes"}, "Rue Fortune": {"highway": "residential", "maxspeed": null, "bicycle": null, "lanes": "1", "oneway": "yes"}, "Rue Jogues": {"highway": "residential", "maxspeed": null, "bicycle": null, "lanes": "2", "oneway": "yes"}, "Rue Moreau": {"highway": "residential", "oneway": "yes", "bicycle": "yes", "lanes": null, "maxspeed": "30"}, "Autoroute Bonaventure Expressway": {"highway": "motorway", "maxspeed": null, "bicycle": "no", "lanes": "3", "oneway": "yes"}, "Rue De Lanaudi\u00e8re": {"highway": "residential", "oneway": "yes", "bicycle": null, "lanes": "1", "maxspeed": "40"}, "Boulevard de la Concorde Ouest": {"highway": "tertiary", "maxspeed": null, "bicycle": null, "lanes": "2", "oneway": "yes"}, "Boulevard Henri-Bourassa Ouest": {"highway": "secondary", "oneway": "yes", "bicycle": null, "lanes": "3", "maxspeed": "50"}, "Rue Evans": {"highway": "residential", "maxspeed": null, "bicycle": null, "lanes": "2", "oneway": "yes"}, "Rue Pontiac": {"highway": "residential", "maxspeed": null, "bicycle": null, "lanes": "1", "oneway": "yes"}, "Rue William": {"highway": "residential", "maxspeed": null, "bicycle": null, "lanes": "1", "oneway": "yes"}, "Rue Liverpool": {"highway": "residential", "maxspeed": null, "bicycle": null, "lanes": "1", "oneway": "yes"}, "Rue De Miniac": {"highway": "tertiary", "oneway": "no", "bicycle": null, "lanes": "2", "maxspeed": "50"}, "Boulevard Albert-De Niverville": {"highway": "tertiary", "maxspeed": null, "bicycle": null, "lanes": "1", "oneway": "yes"}, "Rue Leprohon": {"highway": "residential", "maxspeed": null, "bicycle": null, "lanes": "2", "oneway": "yes"}, "Avenue Courcelette": {"highway": "residential", "maxspeed": null, "bicycle": null, "lanes": "1", "oneway": "yes"}, "Rue Joyce": {"highway": "residential", "maxspeed": null, "bicycle": null, "lanes": "2", "oneway": "yes"}, "Cours Saint-Lawrence": {"highway": "residential", "maxspeed": null, "bicycle": null, "lanes": "1", "oneway": "yes"}, "Avenue Lincoln": {"highway": "residential", "maxspeed": null, "bicycle": null, "lanes": "2", "oneway": "yes"}, "Rue McKenna": {"highway": "residential", "oneway": null, "bicycle": "designated", "lanes": "2", "maxspeed": null}, "Avenue De Montmagny": {"highway": "residential", "maxspeed": null, "bicycle": null, "lanes": "2", "oneway": "yes"}, "Avenue De Chateaubriand": {"highway": "tertiary", "maxspeed": null, "bicycle": null, "lanes": "2", "oneway": "yes"}, "Rue Baile": {"highway": "residential", "maxspeed": null, "bicycle": null, "lanes": "1", "oneway": "yes"}, "20 ouest / 138 ouest": {"highway": "construction", "maxspeed": null, "bicycle": null, "lanes": "3", "oneway": "yes"}, "Rue Truman": {"highway": "residential", "maxspeed": null, "bicycle": null, "lanes": "2", "oneway": "yes"}, "Avenue Hingston": {"highway": "residential", "oneway": "yes", "bicycle": null, "lanes": null, "maxspeed": "50"}, "Rue Joliette": {"highway": "residential", "oneway": "yes", "bicycle": null, "lanes": null, "maxspeed": "50"}, "63e Avenue": {"highway": "residential", "maxspeed": null, "bicycle": null, "lanes": "1", "oneway": "yes"}, "Avenue Plantagenet": {"highway": "residential", "maxspeed": null, "bicycle": null, "lanes": "1", "oneway": "yes"}, "Boulevard Lalande": {"highway": "residential", "oneway": null, "bicycle": "designated", "lanes": "2", "maxspeed": null}, "Chemin Circle": {"highway": "residential", "maxspeed": null, "bicycle": null, "lanes": "2", "oneway": "yes"}, "Rue du Fort": {"highway": "residential", "maxspeed": null, "bicycle": null, "lanes": "1", "oneway": "yes"}, "Avenue Lake": {"highway": "residential", "maxspeed": null, "bicycle": null, "lanes": "2", "oneway": "yes"}, "Dunbar Avenue": {"highway": "residential", "maxspeed": null, "bicycle": "yes", "lanes": "2", "oneway": "no"}, "Rue Marcel": {"highway": "residential", "oneway": "no", "bicycle": null, "lanes": null, "maxspeed": "50"}, "Avenue Thrush": {"highway": "residential", "oneway": null, "bicycle": "designated", "lanes": "2", "maxspeed": null}, "Autoroute Ren\u00e9-Levesque": {"highway": "motorway", "oneway": "yes", "bicycle": null, "lanes": "4", "maxspeed": "100"}, "Rue Richard": {"highway": "residential", "maxspeed": null, "bicycle": null, "lanes": "1", "oneway": "yes"}, "Avenue Rockland": {"highway": "residential", "oneway": "yes", "bicycle": null, "lanes": null, "maxspeed": "40"}, "Avenue Pierre P\u00e9ladeau": {"highway": "unclassified", "maxspeed": null, "bicycle": null, "lanes": "2", "oneway": "yes"}, "Rue Dufferin": {"highway": "residential", "maxspeed": null, "bicycle": null, "lanes": "1", "oneway": "yes"}, "Square Richmond": {"highway": "residential", "maxspeed": null, "bicycle": null, "lanes": "1", "oneway": "yes"}, "Autoroute Ville-Marie (720 ouest)": {"highway": "construction", "maxspeed": null, "bicycle": null, "lanes": "2", "oneway": "yes"}, "Rue Augustin-Cantin": {"highway": "residential", "maxspeed": null, "bicycle": null, "lanes": "1", "oneway": "yes"}, "Avenue de l'H\u00f4tel-de-Ville": {"highway": "residential", "maxspeed": null, "bicycle": "yes", "lanes": null, "oneway": "no"}, "42\u00e8me Avenue": {"highway": "residential", "maxspeed": null, "bicycle": null, "lanes": "1", "oneway": "yes"}, "Rue \u00c9douard-Charles": {"highway": "residential", "maxspeed": null, "bicycle": null, "lanes": "2", "oneway": "yes"}, "Rue Angers": {"highway": "residential", "maxspeed": null, "bicycle": "designated", "lanes": null, "oneway": "yes"}, "Chemin Queen Mary": {"highway": "tertiary", "oneway": null, "bicycle": null, "lanes": "6", "maxspeed": "50"}, "Rue Marie-Anne Est": {"highway": "residential", "oneway": "yes", "bicycle": null, "lanes": "1", "maxspeed": "30"}, "Mont\u00e9e de Liesse": {"highway": "tertiary", "maxspeed": null, "bicycle": null, "lanes": "2", "oneway": "yes"}, "Avenue Bourke": {"highway": "residential", "maxspeed": null, "bicycle": null, "lanes": "1", "oneway": "yes"}, "Rue Springland": {"highway": "residential", "maxspeed": null, "bicycle": null, "lanes": "2", "oneway": "yes"}, "Rue Mazarin": {"highway": "residential", "maxspeed": null, "bicycle": null, "lanes": "2", "oneway": "yes"}, "Rue Hope": {"highway": "residential", "maxspeed": null, "bicycle": null, "lanes": "1", "oneway": "yes"}, "Avenue Lionel-Groulx": {"highway": "residential", "oneway": null, "bicycle": "designated", "lanes": "2", "maxspeed": null}, "Boulevard Rom\u00e9o-Vachon Sud": {"highway": "motorway_link", "maxspeed": null, "bicycle": null, "lanes": "2", "oneway": "yes"}, "Avenue Ridgewood": {"highway": "residential", "maxspeed": null, "bicycle": null, "lanes": "2", "oneway": "yes"}, "Chemin Bates": {"highway": "tertiary", "maxspeed": null, "bicycle": null, "lanes": "2", "oneway": "no"}, "Rue Claude-Vivier": {"highway": "unclassified", "maxspeed": null, "bicycle": null, "lanes": "2", "oneway": "yes"}, "Rue Couvrette": {"highway": "residential", "maxspeed": null, "bicycle": null, "lanes": "2", "oneway": "yes"}, "Boulevard de l'Avenir": {"highway": "tertiary", "oneway": "yes", "bicycle": null, "lanes": "3", "maxspeed": "50"}, "Rue Gratton": {"highway": "residential", "maxspeed": null, "bicycle": null, "lanes": "2", "oneway": "yes"}, "Rue Th\u00e9r\u00e8se-Hall\u00e9": {"highway": "tertiary", "maxspeed": null, "bicycle": null, "lanes": "2", "oneway": "yes"}, "Boulevard Monk": {"highway": "secondary", "maxspeed": null, "bicycle": null, "lanes": "2", "oneway": "yes"}, "Rue de Berri": {"highway": "residential", "maxspeed": null, "bicycle": null, "lanes": "1", "oneway": "yes"}, "Autoroute du Souvenir (20 ouest)": {"highway": "construction", "maxspeed": null, "bicycle": null, "lanes": "3", "oneway": "yes"}, "Avenue Kirkfield": {"highway": "residential", "oneway": null, "bicycle": null, "lanes": "2", "maxspeed": "40"}, "Rue Lonergan": {"highway": "unclassified", "maxspeed": null, "bicycle": null, "lanes": "1", "oneway": "no"}, "Avenue Christophe-Colomb": {"highway": "residential", "oneway": "yes", "bicycle": null, "lanes": null, "maxspeed": "30"}, "Rue West Broadway": {"highway": "tertiary", "maxspeed": null, "bicycle": null, "lanes": "1", "oneway": "yes"}, "Boulevard Daniel-Johnson": {"highway": "tertiary", "oneway": "yes", "bicycle": null, "lanes": "2", "maxspeed": "60"}, "Chemin Markham": {"highway": "residential", "maxspeed": null, "bicycle": "designated", "lanes": "1", "oneway": "yes"}, "Pont Cl\u00e9ment Bridge": {"highway": "motorway", "oneway": "yes", "bicycle": "no", "lanes": null, "maxspeed": "70"}, "Avenue Outremont": {"highway": "residential", "maxspeed": null, "bicycle": null, "lanes": "1", "oneway": "yes"}, "Rue Odette-Oligny": {"highway": "residential", "oneway": null, "bicycle": "designated", "lanes": "2", "maxspeed": null}, "Rue de Mentana": {"highway": "residential", "maxspeed": null, "bicycle": null, "lanes": "1", "oneway": "yes"}, "\u00c9pingle": {"highway": "raceway", "oneway": "yes", "bicycle": null, "lanes": null, "maxspeed": "30"}, "Rue Iona": {"highway": "residential", "maxspeed": null, "bicycle": null, "lanes": "1", "oneway": "yes"}, "Rue Lajeunesse": {"highway": "secondary", "oneway": "yes", "bicycle": "designated", "lanes": "2", "maxspeed": "50"}, "Pont Lachapelle": {"highway": "primary", "maxspeed": null, "bicycle": null, "lanes": "3", "oneway": "yes"}, "Boulevard Saint-Martin": {"highway": "secondary", "oneway": "yes", "bicycle": null, "lanes": "3", "maxspeed": "60"}, "De Rose-de-Lima \u00e0 720 ouest (temp.)": {"highway": "construction", "maxspeed": null, "bicycle": null, "lanes": "1", "oneway": "yes"}, "Autoroute Ville-Marie Ouest": {"highway": "motorway", "maxspeed": null, "bicycle": null, "lanes": "3", "oneway": "yes"}, "21e Avenue": {"highway": "residential", "oneway": "yes", "bicycle": null, "lanes": null, "maxspeed": "40"}, "Avenue Duverger": {"highway": "residential", "maxspeed": null, "bicycle": null, "lanes": "2", "oneway": "yes"}, "Boulevard de l'Acadie": {"highway": "secondary", "oneway": "yes", "bicycle": null, "lanes": "2", "maxspeed": "50"}, "Autoroute D\u00e9carie": {"highway": "motorway", "oneway": "yes", "bicycle": null, "lanes": "2", "maxspeed": "70"}, "Place des Cageux": {"highway": "residential", "maxspeed": null, "bicycle": null, "lanes": "2", "oneway": "yes"}, "Ferncroft Road": {"highway": "residential", "maxspeed": null, "bicycle": null, "lanes": "2", "oneway": "yes"}, "Rue Basset": {"highway": "unclassified", "maxspeed": null, "bicycle": null, "lanes": "1", "oneway": "yes"}, "Rue Notre-Dame Est": {"highway": "primary", "oneway": "yes", "bicycle": null, "lanes": null, "maxspeed": "60"}, "Avenue Saint-Louis": {"highway": "tertiary", "oneway": null, "bicycle": null, "lanes": "2", "maxspeed": "50"}, "Rue de Maricourt": {"highway": "residential", "maxspeed": null, "bicycle": null, "lanes": "2", "oneway": "yes"}, "Place des Nautoniers": {"highway": "residential", "maxspeed": null, "bicycle": null, "lanes": "1", "oneway": "yes"}, "Boulevard Saint-Germain": {"highway": "residential", "maxspeed": null, "bicycle": null, "lanes": "1", "oneway": "yes"}, "Rue des \u00c9cores": {"highway": "residential", "maxspeed": null, "bicycle": "yes", "lanes": "1", "oneway": "yes"}, "Avenue Kitchener": {"highway": "residential", "oneway": null, "bicycle": null, "lanes": "2", "maxspeed": "30"}, "De 15 nord \u00e0 20 ouest (temp)": {"highway": "construction", "maxspeed": null, "bicycle": null, "lanes": "1", "oneway": "yes"}, "10e Avenue": {"highway": "residential", "maxspeed": null, "bicycle": null, "lanes": "1", "oneway": "yes"}, "Rue Berger": {"highway": "residential", "maxspeed": null, "bicycle": null, "lanes": "1", "oneway": "yes"}, "Rue Gladstone": {"highway": "residential", "maxspeed": null, "bicycle": null, "lanes": "2", "oneway": "yes"}, "Rue Bessette": {"highway": "residential", "oneway": "no", "bicycle": null, "lanes": "2", "maxspeed": "50"}, "Rue du D\u00e9p\u00f4t-Manning": {"highway": "residential", "oneway": "yes", "bicycle": null, "lanes": null, "maxspeed": "30"}, "Rue Meadowbrook": {"highway": "residential", "maxspeed": null, "bicycle": null, "lanes": "1", "oneway": "yes"}, "Rue Montcalm": {"highway": "residential", "oneway": "yes", "bicycle": null, "lanes": "1", "maxspeed": "50"}, "Rue Thomas Chapais": {"highway": "residential", "maxspeed": null, "bicycle": null, "lanes": "2", "oneway": "yes"}, "Boulevard De La V\u00e9rendrye": {"highway": "secondary", "maxspeed": null, "bicycle": null, "lanes": "1", "oneway": "yes"}, "Rue Marconi": {"highway": "residential", "maxspeed": null, "bicycle": null, "lanes": "1", "oneway": "yes"}, "Rue Hurteau": {"highway": "residential", "maxspeed": null, "bicycle": null, "lanes": "2", "oneway": "yes"}, "Boulevard Notre-Dame": {"highway": "tertiary", "oneway": "yes", "bicycle": null, "lanes": "2", "maxspeed": "60"}, "Rue Cuvillier": {"highway": "residential", "maxspeed": null, "bicycle": "yes", "lanes": null, "oneway": "yes"}, "Rue Basin": {"highway": "residential", "oneway": null, "bicycle": "yes", "lanes": "2", "maxspeed": "50"}, "Rue Fernand-Seguin": {"highway": "unclassified", "maxspeed": null, "bicycle": null, "lanes": "1", "oneway": "yes"}, "Rue Dupr\u00e9": {"highway": "residential", "maxspeed": null, "bicycle": null, "lanes": "2", "oneway": "yes"}, "Avenue de la Brunante": {"highway": "residential", "maxspeed": null, "bicycle": null, "lanes": "1", "oneway": "yes"}, "Chemin de la C\u00f4te-des-Neiges": {"highway": "secondary", "oneway": "yes", "bicycle": null, "lanes": "3", "maxspeed": "50"}, "Chemin Clyde": {"highway": "tertiary", "maxspeed": null, "bicycle": null, "lanes": "2", "oneway": "yes"}, "Rue Centrale": {"highway": "residential", "maxspeed": null, "bicycle": null, "lanes": "1", "oneway": "yes"}, "Rue Manning": {"highway": "residential", "maxspeed": null, "bicycle": null, "lanes": "1", "oneway": "yes"}, "Avenue Meridian": {"highway": "residential", "maxspeed": null, "bicycle": null, "lanes": "1", "oneway": "yes"}, "Rue Bercy": {"highway": "residential", "maxspeed": null, "bicycle": null, "lanes": "1", "oneway": "yes"}, "44e Avenue": {"highway": "residential", "maxspeed": null, "bicycle": null, "lanes": "2", "oneway": "yes"}, "15 nord - 20 ouest": {"highway": "motorway", "maxspeed": null, "bicycle": null, "lanes": "2", "oneway": "yes"}, "Boulevard La Fayette": {"highway": "tertiary", "maxspeed": null, "bicycle": null, "lanes": "2", "oneway": "yes"}, "Chemin Deacon": {"highway": "residential", "maxspeed": null, "bicycle": null, "lanes": "2", "oneway": "yes"}, "Boulevard Ville Marie est": {"highway": "trunk", "oneway": "yes", "bicycle": null, "lanes": "3", "maxspeed": "60"}, "Virage Senna": {"highway": "raceway", "oneway": "yes", "bicycle": null, "lanes": null, "maxspeed": "30"}, "Rue de la Cath\u00e9drale": {"highway": "unclassified", "maxspeed": null, "bicycle": null, "lanes": "1", "oneway": "yes"}, "Rue Sherbrooke Est": {"highway": "primary", "oneway": null, "bicycle": null, "lanes": "3", "maxspeed": "50"}, "Rue Melrose": {"highway": "residential", "maxspeed": null, "bicycle": null, "lanes": "1", "oneway": "yes"}, "longueuil ouest-est": {"highway": "cycleway", "maxspeed": null, "bicycle": "yes", "lanes": null, "oneway": "no"}, "Rue Louis Par\u00e9": {"highway": "residential", "maxspeed": null, "bicycle": null, "lanes": "1", "oneway": "yes"}, "Avenue Thornhill": {"highway": "residential", "maxspeed": null, "bicycle": null, "lanes": "2", "oneway": "yes"}, "Avenue Mar\u00e9chal": {"highway": "residential", "maxspeed": null, "bicycle": null, "lanes": "1", "oneway": "yes"}, "15 nord / 20 ouest": {"highway": "construction", "maxspeed": null, "bicycle": null, "lanes": "3", "oneway": "yes"}, "Place Olivette-Thibault": {"highway": "residential", "oneway": "yes", "bicycle": null, "lanes": null, "maxspeed": "40"}, "Rue Louis-H\u00e9mon": {"highway": "residential", "maxspeed": null, "bicycle": "yes", "lanes": "1", "oneway": "yes"}, "Chemin Daulac": {"highway": "residential", "maxspeed": null, "bicycle": null, "lanes": "2", "oneway": "yes"}, "Voie Camillien-Houde": {"highway": "tertiary", "oneway": null, "bicycle": "yes", "lanes": "2", "maxspeed": "50"}, "Rue Saint-Jacques": {"highway": "secondary", "maxspeed": null, "bicycle": null, "lanes": "1", "oneway": "yes"}, "Avenue Atwater": {"highway": "secondary", "maxspeed": null, "bicycle": null, "lanes": "3", "oneway": "yes"}, "Rue Robert": {"highway": "residential", "maxspeed": null, "bicycle": null, "lanes": "2", "oneway": "yes"}, "Autoroute des Laurentides": {"highway": "motorway", "oneway": "yes", "bicycle": null, "lanes": "4", "maxspeed": "100"}, "Boulevard Brunswick": {"highway": "tertiary", "maxspeed": null, "bicycle": null, "lanes": "2", "oneway": "yes"}, "Rue de Malines": {"highway": "unclassified", "oneway": null, "bicycle": null, "lanes": "2", "maxspeed": "30"}, "Autoroute M\u00e9tropolitaine": {"highway": "motorway", "oneway": "yes", "bicycle": null, "lanes": "2", "maxspeed": "70"}, "Rue Lacroix": {"highway": "residential", "maxspeed": null, "bicycle": null, "lanes": "2", "oneway": "yes"}, "Rue Beaudry": {"highway": "residential", "maxspeed": null, "bicycle": null, "lanes": "1", "oneway": "yes"}, "Rue Mount": {"highway": "residential", "oneway": null, "bicycle": null, "lanes": "2", "maxspeed": "40"}, "Avenue de Falaise": {"highway": "residential", "oneway": null, "bicycle": null, "lanes": "2", "maxspeed": "40"}, "Greenoch Avenue": {"highway": "residential", "oneway": null, "bicycle": "designated", "lanes": "2", "maxspeed": null}, "Avenue Saint-Kevin": {"highway": "residential", "maxspeed": null, "bicycle": null, "lanes": "1", "oneway": "yes"}, "Avenue du Parc": {"highway": "residential", "maxspeed": null, "bicycle": null, "lanes": "2", "oneway": "no"}, "Boulevard Hymus": {"highway": "tertiary", "oneway": null, "bicycle": null, "lanes": "2", "maxspeed": "50"}, "Avenue Viger Est": {"highway": "trunk", "oneway": "yes", "bicycle": null, "lanes": "4", "maxspeed": "60"}, "10 est / 15 sud / 20 est": {"highway": "construction", "maxspeed": null, "bicycle": null, "lanes": "3", "oneway": "yes"}, "30e Avenue": {"highway": "residential", "maxspeed": null, "bicycle": null, "lanes": "1", "oneway": "yes"}, "Avenue Carlton": {"highway": "residential", "maxspeed": null, "bicycle": null, "lanes": "1", "oneway": "yes"}, "Rue Cypress": {"highway": "residential", "oneway": null, "bicycle": null, "lanes": "2", "maxspeed": "50"}, "Rue Saint-Zotique": {"highway": "tertiary", "maxspeed": null, "bicycle": null, "lanes": "2", "oneway": "no"}, "Rue Garneau": {"highway": "residential", "maxspeed": null, "bicycle": null, "lanes": "2", "oneway": "yes"}, "4e Avenue": {"highway": "residential", "oneway": "yes", "bicycle": null, "lanes": "1", "maxspeed": "30"}, "Rue du Bocage": {"highway": "residential", "oneway": null, "bicycle": "designated", "lanes": "2", "maxspeed": null}, "Autoroute Bonaventure": {"highway": "motorway", "oneway": "yes", "bicycle": null, "lanes": "3", "maxspeed": "70"}, "Avenue Marcil": {"highway": "residential", "maxspeed": null, "bicycle": null, "lanes": "1", "oneway": "yes"}, "Avenue Northmount": {"highway": "residential", "maxspeed": null, "bicycle": null, "lanes": "2", "oneway": "yes"}, "Rue de Beauport": {"highway": "residential", "maxspeed": null, "bicycle": null, "lanes": "1", "oneway": "yes"}, "Chemin Hillsdale": {"highway": "residential", "maxspeed": null, "bicycle": null, "lanes": "2", "oneway": "yes"}, "Rue Bocage": {"highway": "tertiary", "maxspeed": null, "bicycle": null, "lanes": "2", "oneway": "yes"}, "Rue Gabrielle-Roy": {"highway": "residential", "maxspeed": null, "bicycle": null, "lanes": "1", "oneway": "yes"}, "720 ouest (temp.)": {"highway": "construction", "maxspeed": null, "bicycle": null, "lanes": "2", "oneway": "yes"}, "Rue Ren\u00e9-Huguet": {"highway": "residential", "oneway": null, "bicycle": null, "lanes": "2", "maxspeed": "30"}, "Croissant Geneva": {"highway": "residential", "maxspeed": null, "bicycle": null, "lanes": "2", "oneway": "no"}, "Avenue Lennox": {"highway": "residential", "maxspeed": null, "bicycle": null, "lanes": "2", "oneway": "yes"}, "Rue Sabourin": {"highway": "residential", "oneway": "no", "bicycle": null, "lanes": "2", "maxspeed": "50"}, "Rue Maher": {"highway": "residential", "maxspeed": null, "bicycle": null, "lanes": "1", "oneway": "yes"}, "Place de la Bellerive": {"highway": "residential", "maxspeed": null, "bicycle": null, "lanes": "1", "oneway": "yes"}, "Earnscliffe Avenue": {"highway": "residential", "maxspeed": null, "bicycle": null, "lanes": "2", "oneway": "yes"}, "Rue Hogan": {"highway": "residential", "maxspeed": null, "bicycle": null, "lanes": "1", "oneway": "yes"}, "Boulevard Rom\u00e9o-Vachon Nord (d\u00e9parts)": {"highway": "tertiary", "oneway": "yes", "bicycle": null, "lanes": "2", "maxspeed": "30"}, "Rue Victoria": {"highway": "tertiary", "maxspeed": null, "bicycle": null, "lanes": "4", "oneway": "yes"}, "Avenue Davaar": {"highway": "tertiary", "maxspeed": null, "bicycle": null, "lanes": "2", "oneway": "yes"}, "Avenue Duluth Ouest": {"highway": "residential", "oneway": "yes", "bicycle": null, "lanes": "2", "maxspeed": "30"}, "Avenue de Saint-Castin": {"highway": "residential", "oneway": null, "bicycle": "designated", "lanes": "2", "maxspeed": null}, "Rue Rachel Est": {"highway": "secondary", "oneway": null, "bicycle": null, "lanes": "4", "maxspeed": "40"}, "Rue Augustin-Frigon": {"highway": "residential", "oneway": "yes", "bicycle": null, "lanes": null, "maxspeed": "40"}, "Rue Charles Gill": {"highway": "residential", "maxspeed": null, "bicycle": null, "lanes": "1", "oneway": "yes"}, "Autoroute Chomedey": {"highway": "motorway", "oneway": "yes", "bicycle": null, "lanes": "3", "maxspeed": "100"}, "Avenue Stuart": {"highway": "residential", "maxspeed": null, "bicycle": null, "lanes": "1", "oneway": "yes"}, "Boulevard Cur\u00e9-Labelle": {"highway": "primary", "oneway": "yes", "bicycle": null, "lanes": "2", "maxspeed": "60"}, "Boulevard Laird": {"highway": "tertiary", "maxspeed": null, "bicycle": null, "lanes": "3", "oneway": "yes"}, "Rue Drolet": {"highway": "residential", "maxspeed": null, "bicycle": null, "lanes": "1", "oneway": "yes"}, "Rue Hardy": {"highway": "residential", "oneway": "yes", "bicycle": null, "lanes": null, "maxspeed": "30"}, "De 720 ouest \u00e0 15 nord": {"highway": "construction", "maxspeed": null, "bicycle": null, "lanes": "1", "oneway": "yes"}, "Rue de Mulberry": {"highway": "residential", "oneway": "yes", "bicycle": null, "lanes": "2", "maxspeed": "40"}, "Avenue Doherty": {"highway": "residential", "maxspeed": null, "bicycle": null, "lanes": "1", "oneway": "yes"}, "Avenue Docteur Penfield": {"highway": "secondary", "oneway": "yes", "bicycle": null, "lanes": null, "maxspeed": "50"}, "Avenue Quintal": {"highway": "residential", "maxspeed": null, "bicycle": null, "lanes": "2", "oneway": "yes"}, "Avenue Viger Ouest": {"highway": "secondary", "oneway": "yes", "bicycle": null, "lanes": "2", "maxspeed": "50"}, "36e Avenue": {"highway": "residential", "maxspeed": null, "bicycle": null, "lanes": "2", "oneway": "yes"}, "Autoroute Transcanadienne": {"highway": "motorway", "oneway": "yes", "bicycle": "no", "lanes": "3", "maxspeed": "100"}, "Rue Hooper": {"highway": "residential", "maxspeed": null, "bicycle": null, "lanes": "1", "oneway": "yes"}, "Rue Guilbault Ouest": {"highway": "residential", "maxspeed": null, "bicycle": null, "lanes": "1", "oneway": "yes"}, "Boulevard Marcel-Laurin": {"highway": "primary", "maxspeed": null, "bicycle": null, "lanes": "3", "oneway": "yes"}, "Rue Drummond": {"highway": "residential", "oneway": "yes", "bicycle": null, "lanes": "1", "maxspeed": "40"}, "Avenue Severn": {"highway": "residential", "maxspeed": null, "bicycle": null, "lanes": "2", "oneway": "yes"}, "Rue Rathwell": {"highway": "residential", "maxspeed": null, "bicycle": null, "lanes": "1", "oneway": "yes"}, "Rue Edward Higgins": {"highway": "residential", "oneway": null, "bicycle": "yes", "lanes": "2", "maxspeed": null}, "Rue Versailles": {"highway": "residential", "maxspeed": null, "bicycle": null, "lanes": "1", "oneway": "yes"}, "Avenue Coolbrook": {"highway": "residential", "maxspeed": null, "bicycle": null, "lanes": "1", "oneway": "yes"}, "Rue Sauv\u00e9 Ouest": {"highway": "secondary", "oneway": "yes", "bicycle": null, "lanes": "4", "maxspeed": "50"}, "Boulevard Saint-Joseph Est": {"highway": "secondary", "maxspeed": null, "bicycle": null, "lanes": "2", "oneway": "yes"}, "Autoroute 15": {"highway": "motorway", "maxspeed": null, "bicycle": null, "lanes": "2", "oneway": "yes"}, "Boulevard Sunnybrooke": {"highway": "residential", "maxspeed": null, "bicycle": null, "lanes": "2", "oneway": "yes"}, "Avenue Cornwall": {"highway": "tertiary", "maxspeed": null, "bicycle": "designated", "lanes": "2", "oneway": "yes"}, "Route 138": {"highway": "motorway", "maxspeed": null, "bicycle": null, "lanes": "2", "oneway": "yes"}, "Rue Notre-Dame Ouest": {"highway": "secondary", "oneway": "yes", "bicycle": null, "lanes": "2", "maxspeed": "50"}, "Chemin de la Pointe-Sud": {"highway": "tertiary", "maxspeed": null, "bicycle": null, "lanes": "2", "oneway": "yes"}, "Boulevard Ren\u00e9-L\u00e9vesque Ouest": {"highway": "secondary", "maxspeed": null, "bicycle": null, "lanes": "3", "oneway": "yes"}, "Avenue Linton": {"highway": "residential", "oneway": "yes", "bicycle": null, "lanes": "1", "maxspeed": "40"}, "Avenue du Casino": {"highway": "unclassified", "maxspeed": null, "bicycle": null, "lanes": "1", "oneway": "yes"}, "Rue Paulus": {"highway": "residential", "oneway": "no", "bicycle": null, "lanes": "2", "maxspeed": "50"}, "Boulevard Chomedey": {"highway": "tertiary", "oneway": "yes", "bicycle": null, "lanes": "3", "maxspeed": "60"}, "Avenue Desmarchais": {"highway": "residential", "oneway": "yes", "bicycle": null, "lanes": "1", "maxspeed": "30"}, "720 est (temp.)": {"highway": "motorway", "maxspeed": null, "bicycle": null, "lanes": "2", "oneway": "yes"}, "69e Avenue": {"highway": "residential", "maxspeed": null, "bicycle": null, "lanes": "1", "oneway": "yes"}, "Place Olivia-Lasnier": {"highway": "residential", "oneway": "yes", "bicycle": null, "lanes": null, "maxspeed": "40"}, "Rue Parthenais": {"highway": "residential", "maxspeed": null, "bicycle": null, "lanes": "1", "oneway": "yes"}, "Rue d'Hibernia": {"highway": "residential", "maxspeed": null, "bicycle": null, "lanes": "1", "oneway": "yes"}, "Avenue McNider": {"highway": "residential", "maxspeed": null, "bicycle": null, "lanes": "2", "oneway": "yes"}, "Rue Globert": {"highway": "residential", "maxspeed": null, "bicycle": null, "lanes": "2", "oneway": "yes"}, "Autoroute F\u00e9lix-Leclerc": {"highway": "motorway", "oneway": "yes", "bicycle": "no", "lanes": "3", "maxspeed": "100"}, "Boulevard Saint-Michel": {"highway": "secondary", "oneway": null, "bicycle": null, "lanes": "3", "maxspeed": "50"}, "Avenue Kent": {"highway": "residential", "maxspeed": null, "bicycle": null, "lanes": "1", "oneway": "yes"}, "Avenue McEachran": {"highway": "tertiary", "maxspeed": null, "bicycle": null, "lanes": "2", "oneway": "yes"}, "56e Avenue": {"highway": "residential", "oneway": null, "bicycle": null, "lanes": "2", "maxspeed": "30"}, "Avenue Gatineau": {"highway": "residential", "maxspeed": null, "bicycle": null, "lanes": "1", "oneway": "yes"}, "Avenue Lacombe": {"highway": "residential", "maxspeed": null, "bicycle": null, "lanes": "1", "oneway": "yes"}, "Rue Nazareth": {"highway": "primary", "maxspeed": null, "bicycle": null, "lanes": "5", "oneway": "yes"}, "Boulevard de la C\u00f4te-Vertu Ouest": {"highway": "secondary", "maxspeed": null, "bicycle": null, "lanes": "3", "oneway": "yes"}, "Brookfield Avenue": {"highway": "residential", "oneway": null, "bicycle": "designated", "lanes": "2", "maxspeed": null}, "Rue Ivan-Franko": {"highway": "residential", "maxspeed": null, "bicycle": null, "lanes": "2", "oneway": "yes"}, "Rue Beatty": {"highway": "residential", "maxspeed": null, "bicycle": null, "lanes": "1", "oneway": "yes"}, "Place Decelles": {"highway": "residential", "maxspeed": null, "bicycle": null, "lanes": "2", "oneway": "yes"}, "Chemin de la Pointe-Nord": {"highway": "residential", "maxspeed": null, "bicycle": null, "lanes": "2", "oneway": "yes"}, "Place de la Fontaine": {"highway": "residential", "maxspeed": null, "bicycle": null, "lanes": "2", "oneway": "yes"}, "Crescent Blueridge": {"highway": "residential", "maxspeed": null, "bicycle": null, "lanes": "2", "oneway": "yes"}, "Avenue Bourret": {"highway": "residential", "maxspeed": null, "bicycle": null, "lanes": "1", "oneway": "yes"}, "Boulevard Saint-Martin Ouest": {"highway": "secondary", "oneway": null, "bicycle": null, "lanes": "2", "maxspeed": "50"}, "Avenue Woodbury": {"highway": "residential", "maxspeed": null, "bicycle": null, "lanes": "1", "oneway": "yes"}, "Rue Matis": {"highway": "residential", "oneway": "no", "bicycle": null, "lanes": null, "maxspeed": "50"}, "Avenue de Courtrai": {"highway": "residential", "maxspeed": null, "bicycle": null, "lanes": "2", "oneway": "yes"}, "Rue Saint-Charles Ouest": {"highway": "tertiary", "oneway": "yes", "bicycle": null, "lanes": null, "maxspeed": "30"}, "Rue Brault": {"highway": "residential", "maxspeed": null, "bicycle": null, "lanes": "1", "oneway": "yes"}, "Place Vieux March\u00e9 Nord": {"highway": "residential", "maxspeed": null, "bicycle": null, "lanes": "2", "oneway": "yes"}, "Chemin Remembrance": {"highway": "tertiary", "oneway": null, "bicycle": null, "lanes": "2", "maxspeed": "50"}, "Boulevard du Mont-Royal": {"highway": "residential", "oneway": null, "bicycle": null, "lanes": "2", "maxspeed": "40"}, "Boulevard Saint-Joseph": {"highway": "tertiary", "oneway": "yes", "bicycle": null, "lanes": "2", "maxspeed": "30"}, "Boulevard Galland": {"highway": "residential", "maxspeed": null, "bicycle": null, "lanes": "1", "oneway": "yes"}, "Rue Robertson": {"highway": "residential", "maxspeed": null, "bicycle": null, "lanes": "2", "oneway": "yes"}, "Chemin du Golf": {"highway": "residential", "maxspeed": null, "bicycle": null, "lanes": "2", "oneway": "yes"}, "Rue Saint-Mathieu": {"highway": "residential", "maxspeed": null, "bicycle": null, "lanes": "4", "oneway": "yes"}, "Boulevard Henri-Bourassa": {"highway": "secondary", "maxspeed": null, "bicycle": null, "lanes": "3", "oneway": "yes"}, "Boulevard Newman": {"highway": "tertiary", "maxspeed": null, "bicycle": null, "lanes": "2", "oneway": "yes"}, "Boulevard Rom\u00e9o-Vachon Nord (arriv\u00e9es)": {"highway": "tertiary", "maxspeed": null, "bicycle": null, "lanes": "2", "oneway": "yes"}, "Boulevard des Sources": {"highway": "secondary", "oneway": "yes", "bicycle": null, "lanes": "3", "maxspeed": "50"}, "Rue Willibrord": {"highway": "residential", "maxspeed": null, "bicycle": null, "lanes": "1", "oneway": "yes"}, "Avenue McCulloch": {"highway": "residential", "maxspeed": null, "bicycle": null, "lanes": "2", "oneway": "yes"}, "Rue Torrance": {"highway": "unclassified", "maxspeed": null, "bicycle": null, "lanes": "2", "oneway": "no"}, "Boulevard Bishop-Power": {"highway": "tertiary", "maxspeed": null, "bicycle": null, "lanes": "3", "oneway": "yes"}, "Autoroute Ville Marie": {"highway": "motorway", "maxspeed": null, "bicycle": null, "lanes": "3", "oneway": "yes"}, "Rue De Beauharnois Ouest": {"highway": "residential", "maxspeed": null, "bicycle": null, "lanes": "2", "oneway": "no"}, "Boulevard Thimens": {"highway": "tertiary", "maxspeed": null, "bicycle": null, "lanes": "2", "oneway": "yes"}, "Boulevard De Maisonneuve Est": {"highway": "tertiary", "maxspeed": null, "bicycle": null, "lanes": "4", "oneway": "yes"}, "Rue Sainte-Famille": {"highway": "residential", "maxspeed": null, "bicycle": "yes", "lanes": "1", "oneway": "no"}, "Boulevard Sir-Wilfrid-Laurier": {"highway": "primary", "oneway": "yes", "bicycle": null, "lanes": null, "maxspeed": "50"}, "Boulevard Cr\u00e9mazie Ouest": {"highway": "motorway_link", "oneway": "yes", "bicycle": null, "lanes": "1", "maxspeed": "50"}, "Rue Frontenac": {"highway": "secondary", "oneway": "yes", "bicycle": null, "lanes": "2", "maxspeed": "50"}, "Chemin du Club-Marin": {"highway": "residential", "maxspeed": null, "bicycle": null, "lanes": "1", "oneway": "yes"}, "Place Elmwood": {"highway": "residential", "maxspeed": null, "bicycle": null, "lanes": "2", "oneway": "yes"}, "Parkside Street": {"highway": "residential", "maxspeed": null, "bicycle": null, "lanes": "1", "oneway": "yes"}, "Avenue Melbourne": {"highway": "residential", "oneway": null, "bicycle": null, "lanes": "2", "maxspeed": "30"}, "Avenue Louis-H\u00e9bert": {"highway": "residential", "maxspeed": null, "bicycle": null, "lanes": "1", "oneway": "yes"}, "Rue Messier": {"highway": "residential", "maxspeed": null, "bicycle": null, "lanes": "1", "oneway": "yes"}, "Rue De Berni\u00e8res": {"highway": "residential", "oneway": null, "bicycle": null, "lanes": "2", "maxspeed": "40"}, "Promenade des \u00celes": {"highway": "residential", "maxspeed": null, "bicycle": null, "lanes": "1", "oneway": "yes"}, "Rue Metcalfe": {"highway": "residential", "oneway": "yes", "bicycle": null, "lanes": null, "maxspeed": "40"}, "Rue Jean-D'Estr\u00e9es": {"highway": "secondary", "maxspeed": null, "bicycle": null, "lanes": "3", "oneway": "yes"}, "Avenue de Dieppe": {"highway": "residential", "oneway": null, "bicycle": null, "lanes": "2", "maxspeed": "40"}, "Rue de l'\u00c9glise": {"highway": "residential", "maxspeed": null, "bicycle": "designated", "lanes": "2", "oneway": "yes"}, "Avenue Laval": {"highway": "residential", "maxspeed": null, "bicycle": null, "lanes": "1", "oneway": "yes"}, "20 est / 138 est": {"highway": "motorway", "maxspeed": null, "bicycle": null, "lanes": "3", "oneway": "yes"}, "Avenue Decelles": {"highway": "tertiary", "maxspeed": null, "bicycle": null, "lanes": "2", "oneway": "yes"}, "Avenue Laurier Ouest": {"highway": "tertiary", "maxspeed": null, "bicycle": null, "lanes": "2", "oneway": "yes"}, "Rue Patricia": {"highway": "residential", "maxspeed": null, "bicycle": null, "lanes": "2", "oneway": "yes"}, "Avenue Casgrain": {"highway": "residential", "oneway": null, "bicycle": "designated", "lanes": "1", "maxspeed": null}, "Rue Lucien Paiement": {"highway": "residential", "maxspeed": null, "bicycle": null, "lanes": "2", "oneway": "no"}, "Avenue Hudson": {"highway": "residential", "maxspeed": null, "bicycle": null, "lanes": "2", "oneway": "yes"}, "Avenue d'Outremont": {"highway": "residential", "maxspeed": null, "bicycle": null, "lanes": "1", "oneway": "yes"}, "Avenue de Monkland": {"highway": "tertiary", "maxspeed": null, "bicycle": null, "lanes": "2", "oneway": "no"}, "Avenue Macdonald": {"highway": "residential", "maxspeed": null, "bicycle": null, "lanes": "1", "oneway": "yes"}, "Rue Berri": {"highway": "residential", "maxspeed": null, "bicycle": null, "lanes": "2", "oneway": "yes"}, "Boulevard du Souvenir": {"highway": "tertiary", "maxspeed": null, "bicycle": null, "lanes": "3", "oneway": "yes"}, "Rue le Caron": {"highway": "residential", "maxspeed": null, "bicycle": null, "lanes": "2", "oneway": "yes"}, "20 ouest /138 ouest (temp.)": {"highway": "construction", "maxspeed": null, "bicycle": null, "lanes": "3", "oneway": "yes"}, "Chemin du Bord-de-l'Eau": {"highway": "tertiary", "oneway": null, "bicycle": "designated", "lanes": "2", "maxspeed": null}, "Place du Soleil": {"highway": "residential", "maxspeed": null, "bicycle": null, "lanes": "1", "oneway": "yes"}, "Rue du Souvenir": {"highway": "residential", "maxspeed": null, "bicycle": null, "lanes": "2", "oneway": "yes"}, "Avenue Forest Hill": {"highway": "residential", "maxspeed": null, "bicycle": null, "lanes": "2", "oneway": "yes"}, "Bus": {"highway": "tertiary_link", "maxspeed": null, "bicycle": "designated", "lanes": null, "oneway": "yes"}, "Rue Lambert-Closse": {"highway": "residential", "maxspeed": null, "bicycle": null, "lanes": "1", "oneway": "yes"}, "Rue McArthur": {"highway": "motorway_link", "maxspeed": null, "bicycle": null, "lanes": "1", "oneway": "yes"}, "Avenue Marian": {"highway": "residential", "maxspeed": null, "bicycle": null, "lanes": "1", "oneway": "yes"}, "Autoroute M\u00e9tropolitaine - Autoroute Transcanadienne": {"highway": "motorway", "oneway": "yes", "bicycle": null, "lanes": "2", "maxspeed": "70"}, "Place de la Forge": {"highway": "residential", "oneway": "yes", "bicycle": null, "lanes": null, "maxspeed": "40"}, "Autoroute Jean-No\u00ebl-Lavoie": {"highway": "secondary", "oneway": "yes", "bicycle": null, "lanes": "2", "maxspeed": "70"}, "Selwood Road": {"highway": "residential", "maxspeed": null, "bicycle": null, "lanes": "1", "oneway": "yes"}, "Rue \u00c9lodie-Boucher": {"highway": "unclassified", "maxspeed": null, "bicycle": null, "lanes": "2", "oneway": "no"}, "Boulevard Laurentien": {"highway": "primary", "maxspeed": null, "bicycle": null, "lanes": "3", "oneway": "yes"}, "Boulevard Armand Frappier": {"highway": "residential", "maxspeed": null, "bicycle": null, "lanes": "2", "oneway": "yes"}, "Avenue Henri-Julien": {"highway": "residential", "maxspeed": null, "bicycle": null, "lanes": "1", "oneway": "yes"}, "Rue Alexandra": {"highway": "residential", "maxspeed": null, "bicycle": null, "lanes": "1", "oneway": "yes"}, "Avenue Canterbury": {"highway": "residential", "maxspeed": null, "bicycle": null, "lanes": "1", "oneway": "yes"}, "Rue Fendall": {"highway": "residential", "maxspeed": null, "bicycle": null, "lanes": "1", "oneway": "yes"}, "Avenue Brighton": {"highway": "residential", "maxspeed": null, "bicycle": null, "lanes": "1", "oneway": "yes"}, "Autoroute F\u00e9lix-Lecler": {"highway": "motorway", "oneway": "yes", "bicycle": null, "lanes": "3", "maxspeed": "70"}, "Pont Viau": {"highway": "secondary", "maxspeed": null, "bicycle": null, "lanes": "2", "oneway": "yes"}, "Rue de la Visitation": {"highway": "residential", "oneway": "yes", "bicycle": null, "lanes": "1", "maxspeed": "50"}, "45e Avenue": {"highway": "residential", "maxspeed": null, "bicycle": null, "lanes": "1", "oneway": "yes"}, "Rue Sainte-H\u00e9l\u00e8ne": {"highway": "tertiary", "oneway": null, "bicycle": null, "lanes": "2", "maxspeed": "50"}, "Avenue Shamrock": {"highway": "residential", "maxspeed": null, "bicycle": null, "lanes": "2", "oneway": "yes"}, "Boulevard Robert-Bourassa": {"highway": "secondary", "oneway": "yes", "bicycle": null, "lanes": "4", "maxspeed": "50"}, "32e Avenue": {"highway": "tertiary", "maxspeed": null, "bicycle": null, "lanes": "2", "oneway": "yes"}, "De 15 \u00e0 20 ouest (temp)": {"highway": "construction", "maxspeed": null, "bicycle": null, "lanes": "2", "oneway": "yes"}, "Avenue Barclay": {"highway": "residential", "maxspeed": null, "bicycle": null, "lanes": "1", "oneway": "yes"}, "Autoroute Ville-Marie": {"highway": "motorway", "maxspeed": null, "bicycle": null, "lanes": "1", "oneway": "yes"}, "Boulevard Dr.-Frederik-Philips": {"highway": "tertiary", "maxspeed": null, "bicycle": null, "lanes": "2", "oneway": "yes"}, "10 ouest / 15 nord / 20 ouest": {"highway": "construction", "maxspeed": null, "bicycle": null, "lanes": "3", "oneway": "yes"}, "Avenue Isabella": {"highway": "residential", "maxspeed": null, "bicycle": null, "lanes": "2", "oneway": "yes"}, "Avenue Duluth Est": {"highway": "residential", "maxspeed": null, "bicycle": null, "lanes": "1", "oneway": "yes"}, "Rue Sir-George-Simpson": {"highway": "residential", "maxspeed": null, "bicycle": null, "lanes": "2", "oneway": "yes"}, "Rue Lighthall": {"highway": "residential", "maxspeed": null, "bicycle": null, "lanes": "1", "oneway": "yes"}, "Avenue Darlington": {"highway": "residential", "maxspeed": null, "bicycle": null, "lanes": "1", "oneway": "yes"}, "Rue \u00c9vang\u00e9line": {"highway": "residential", "oneway": "yes", "bicycle": "dismount", "lanes": null, "maxspeed": "30"}, "Boulevard Samson": {"highway": "tertiary", "oneway": "yes", "bicycle": null, "lanes": "3", "maxspeed": "50"}, "Rue Quesnel": {"highway": "residential", "maxspeed": null, "bicycle": null, "lanes": "1", "oneway": "yes"}, "Rue Vincent Massey": {"highway": "residential", "maxspeed": null, "bicycle": null, "lanes": "1", "oneway": "yes"}, "Rue Martineau": {"highway": "residential", "maxspeed": null, "bicycle": null, "lanes": "1", "oneway": "yes"}, "Rue de Verdun": {"highway": "tertiary", "oneway": null, "bicycle": "designated", "lanes": "2", "maxspeed": null}, "Avenue Meloche": {"highway": "motorway_link", "maxspeed": null, "bicycle": null, "lanes": "1", "oneway": "yes"}, "Rue Badeaux": {"highway": "residential", "oneway": null, "bicycle": "yes", "lanes": "2", "maxspeed": null}, "Rue Du Coll\u00e8ge": {"highway": "residential", "maxspeed": null, "bicycle": null, "lanes": "2", "oneway": "yes"}, "Rue Norman": {"highway": "tertiary", "oneway": null, "bicycle": null, "lanes": "2", "maxspeed": "50"}, "15 sud - 20 est (temp.)": {"highway": "motorway", "maxspeed": null, "bicycle": null, "lanes": "2", "oneway": "yes"}, "Avenue Victoria": {"highway": "residential", "maxspeed": null, "bicycle": null, "lanes": "2", "oneway": "yes"}, "Avenue Gascon": {"highway": "residential", "maxspeed": null, "bicycle": null, "lanes": "1", "oneway": "yes"}, "Rue Andr\u00e9-Laurendeau": {"highway": "residential", "oneway": "yes", "bicycle": null, "lanes": null, "maxspeed": "40"}, "Rue De Capiquet": {"highway": "residential", "oneway": null, "bicycle": null, "lanes": "2", "maxspeed": "40"}, "Avenue Reverchon": {"highway": "unclassified", "oneway": null, "bicycle": null, "lanes": "2", "maxspeed": "50"}, "Rue Saint-Charles": {"highway": "residential", "oneway": "no", "bicycle": null, "lanes": null, "maxspeed": "50"}, "Rue Gilford": {"highway": "residential", "maxspeed": null, "bicycle": null, "lanes": "1", "oneway": "yes"}, "Avenue Union": {"highway": "residential", "maxspeed": null, "bicycle": null, "lanes": "1", "oneway": "yes"}, "Rue Jacques-de-Lesseps": {"highway": "tertiary", "maxspeed": null, "bicycle": null, "lanes": "1", "oneway": "yes"}, "Boulevard Cr\u00e9mazie Est": {"highway": "motorway_link", "oneway": "yes", "bicycle": null, "lanes": "3", "maxspeed": "50"}, "Rue Philippe-Lalonde": {"highway": "residential", "oneway": "yes", "bicycle": null, "lanes": null, "maxspeed": "40"}, "Avenue Fairmount Est": {"highway": "residential", "maxspeed": null, "bicycle": null, "lanes": "2", "oneway": "no"}, "Rue De Bienville": {"highway": "residential", "maxspeed": null, "bicycle": null, "lanes": "1", "oneway": "yes"}, "Kildare Road": {"highway": "tertiary", "maxspeed": null, "bicycle": null, "lanes": "2", "oneway": "yes"}, "Avenue Grosvenor": {"highway": "residential", "maxspeed": null, "bicycle": null, "lanes": "1", "oneway": "yes"}, "Boulevard Rosemont": {"highway": "secondary", "oneway": "yes", "bicycle": null, "lanes": "2", "maxspeed": "50"}, "Avenue de la Mis\u00e9ricorde": {"highway": "residential", "maxspeed": null, "bicycle": null, "lanes": "2", "oneway": "yes"}, "Rue Derome": {"highway": "tertiary", "maxspeed": null, "bicycle": null, "lanes": "2", "oneway": "yes"}, "Boulevard Saint-Martin Est": {"highway": "secondary", "oneway": "yes", "bicycle": null, "lanes": "3", "maxspeed": "60"}, "Rue Saint Thomas": {"highway": "residential", "maxspeed": null, "bicycle": null, "lanes": "1", "oneway": "yes"}, "Avenue Glencoe": {"highway": "residential", "oneway": null, "bicycle": null, "lanes": "2", "maxspeed": "40"}, "Rue Lauzon": {"highway": "residential", "maxspeed": null, "bicycle": null, "lanes": "1", "oneway": "yes"}, "Pont Champlain": {"highway": "motorway", "oneway": "yes", "bicycle": null, "lanes": "3", "maxspeed": "70"}, "Rue Fabre": {"highway": "residential", "maxspeed": null, "bicycle": null, "lanes": "1", "oneway": "yes"}, "Avenue Benny": {"highway": "residential", "oneway": "yes", "bicycle": null, "lanes": "1", "maxspeed": "30"}, "Rue Hochelaga": {"highway": "tertiary", "oneway": null, "bicycle": "yes", "lanes": "4", "maxspeed": "50"}, "Pont \u00cele-des-S\u0153urs Bridge": {"highway": "construction", "oneway": "yes", "bicycle": null, "lanes": null, "maxspeed": "70"}, "Pont Victoria": {"highway": "primary", "oneway": "yes", "bicycle": "no", "lanes": null, "maxspeed": "50"}, "26\u00e8me Avenue": {"highway": "residential", "maxspeed": null, "bicycle": null, "lanes": "1", "oneway": "yes"}, "20 ouest / 138 ouest (temp.)": {"highway": "construction", "maxspeed": null, "bicycle": null, "lanes": "3", "oneway": "yes"}, "Rue Milton": {"highway": "residential", "maxspeed": null, "bicycle": null, "lanes": "1", "oneway": "yes"}, "Rue De Normanville": {"highway": "residential", "oneway": "yes", "bicycle": null, "lanes": null, "maxspeed": "40"}, "Avenue Parissi": {"highway": "residential", "maxspeed": null, "bicycle": null, "lanes": "1", "oneway": "yes"}, "Rue Villeneuve Ouest": {"highway": "residential", "oneway": null, "bicycle": "designated", "lanes": "2", "maxspeed": null}, "Chemin Gage": {"highway": "residential", "maxspeed": null, "bicycle": null, "lanes": "2", "oneway": "yes"}, "Rue Masson": {"highway": "tertiary", "oneway": "no", "bicycle": null, "lanes": null, "maxspeed": "40"}, "Rue de la Seigneurie": {"highway": "residential", "maxspeed": null, "bicycle": null, "lanes": "1", "oneway": "yes"}, "Autoroute Ville Marie est": {"highway": "trunk", "maxspeed": null, "bicycle": null, "lanes": "3", "oneway": "yes"}, "Avenue Soissons": {"highway": "residential", "maxspeed": null, "bicycle": null, "lanes": "1", "oneway": "yes"}, "Avenue Willowdale": {"highway": "residential", "maxspeed": null, "bicycle": null, "lanes": "1", "oneway": "yes"}, "48e Avenue": {"highway": "residential", "oneway": null, "bicycle": null, "lanes": "2", "maxspeed": "30"}, "Rue Lahaie": {"highway": "residential", "maxspeed": null, "bicycle": null, "lanes": "1", "oneway": "yes"}, "Chemin Darnley": {"highway": "motorway_link", "maxspeed": null, "bicycle": null, "lanes": "2", "oneway": "yes"}, "Rue Duke": {"highway": "secondary", "maxspeed": null, "bicycle": null, "lanes": "4", "oneway": "yes"}, "Rue Saint-Denis": {"highway": "secondary", "oneway": null, "bicycle": null, "lanes": "4", "maxspeed": "50"}, "Rue Hall": {"highway": "residential", "maxspeed": null, "bicycle": null, "lanes": "2", "oneway": "yes"}, "Avenue Louis-Collin": {"highway": "residential", "maxspeed": null, "bicycle": null, "lanes": "2", "oneway": "yes"}, "Rue de Biencourt": {"highway": "residential", "maxspeed": null, "bicycle": null, "lanes": "2", "oneway": "yes"}, "Autoroute du Souvenir": {"highway": "motorway", "oneway": "yes", "bicycle": null, "lanes": "3", "maxspeed": "100"}, "Rue Stanton": {"highway": "residential", "maxspeed": null, "bicycle": null, "lanes": "2", "oneway": "no"}, "Avenue de l'Esplanade": {"highway": "residential", "maxspeed": null, "bicycle": null, "lanes": "2", "oneway": "yes"}, "Rue Baxter": {"highway": "residential", "oneway": null, "bicycle": "yes", "lanes": null, "maxspeed": "40"}, "6e Avenue": {"highway": "residential", "oneway": null, "bicycle": "yes", "lanes": "3", "maxspeed": null}, "Rue Sainte-Catherine Ouest": {"highway": "secondary", "oneway": "yes", "bicycle": null, "lanes": "2", "maxspeed": "30"}, "Rue Soulanges": {"highway": "residential", "maxspeed": null, "bicycle": null, "lanes": "2", "oneway": "yes"}, "Avenue de Rivoli": {"highway": "residential", "maxspeed": null, "bicycle": "designated", "lanes": "2", "oneway": "yes"}, "Rue de Namur": {"highway": "residential", "maxspeed": null, "bicycle": null, "lanes": "2", "oneway": "no"}, "Avenue Grey": {"highway": "residential", "oneway": "no", "bicycle": null, "lanes": null, "maxspeed": "30"}, "Place du March\u00e9": {"highway": "residential", "maxspeed": null, "bicycle": null, "lanes": "1", "oneway": "yes"}, "Rue Saint-Marc": {"highway": "residential", "maxspeed": null, "bicycle": null, "lanes": "3", "oneway": "yes"}, "Rue Plessis": {"highway": "residential", "maxspeed": null, "bicycle": null, "lanes": "1", "oneway": "yes"}, "Rue Chevalier": {"highway": "residential", "maxspeed": null, "bicycle": null, "lanes": "1", "oneway": "yes"}, "Rue De Fleurimont": {"highway": "residential", "oneway": "yes", "bicycle": null, "lanes": null, "maxspeed": "40"}, "Rue Vittorio-Fiorucci": {"highway": "residential", "oneway": null, "bicycle": "yes", "lanes": "2", "maxspeed": null}, "Avenue Stream": {"highway": "residential", "oneway": null, "bicycle": "designated", "lanes": "2", "maxspeed": null}, "Rue Bibaud": {"highway": "residential", "maxspeed": null, "bicycle": null, "lanes": "2", "oneway": "yes"}, "138 est (temp.)": {"highway": "motorway_link", "maxspeed": null, "bicycle": null, "lanes": "2", "oneway": "yes"}, "20 est (temp.)": {"highway": "motorway", "maxspeed": null, "bicycle": null, "lanes": "2", "oneway": "yes"}, "Rue Knox": {"highway": "residential", "maxspeed": null, "bicycle": null, "lanes": "1", "oneway": "yes"}, "Boulevard Graham": {"highway": "tertiary", "maxspeed": null, "bicycle": "designated", "lanes": "1", "oneway": "yes"}, "Rue Bayard": {"highway": "residential", "oneway": "yes", "bicycle": null, "lanes": "1", "maxspeed": "40"}, "De 20 est \u00e0 15 nord (temp.)": {"highway": "construction", "maxspeed": null, "bicycle": null, "lanes": "1", "oneway": "yes"}, "Chemin de l'Aviation": {"highway": "unclassified", "oneway": null, "bicycle": null, "lanes": "2", "maxspeed": "50"}, "Nouveau Pont Champlain": {"highway": "construction", "maxspeed": null, "bicycle": null, "lanes": "3", "oneway": "yes"}, "Rue George Baril": {"highway": "residential", "oneway": "yes", "bicycle": null, "lanes": null, "maxspeed": "40"}, "15 nord (temp.)": {"highway": "motorway", "maxspeed": null, "bicycle": null, "lanes": "2", "oneway": "yes"}, "100e Avenue": {"highway": "tertiary", "maxspeed": null, "bicycle": null, "lanes": "2", "oneway": "yes"}, "Rue Snowdon": {"highway": "residential", "maxspeed": null, "bicycle": null, "lanes": "1", "oneway": "yes"}, "Rue de l'Abord-\u00e0-Plouffe": {"highway": "residential", "oneway": null, "bicycle": "designated", "lanes": "2", "maxspeed": null}, "Rue Decelles": {"highway": "residential", "maxspeed": null, "bicycle": "designated", "lanes": null, "oneway": "yes"}, "Rue Valmount": {"highway": "residential", "maxspeed": null, "bicycle": null, "lanes": "2", "oneway": "no"}, "Rue Jacques Hertel": {"highway": "residential", "maxspeed": null, "bicycle": null, "lanes": "2", "oneway": "yes"}, "Rue des M\u00e9sanges": {"highway": "residential", "maxspeed": null, "bicycle": null, "lanes": "2", "oneway": "yes"}, "Rue Claude-Mouton": {"highway": "residential", "oneway": "yes", "bicycle": "yes", "lanes": null, "maxspeed": "40"}, "Avenue Hazelwood": {"highway": "residential", "maxspeed": null, "bicycle": null, "lanes": "1", "oneway": "yes"}, "Rue Dessiant": {"highway": "residential", "oneway": "no", "bicycle": null, "lanes": "2", "maxspeed": "50"}, "Rue L\u00e9gar\u00e9": {"highway": "residential", "maxspeed": null, "bicycle": null, "lanes": "1", "oneway": "no"}, "Rue Gordon": {"highway": "residential", "maxspeed": null, "bicycle": null, "lanes": "1", "oneway": "yes"}, "Rue Jarry Est": {"highway": "motorway_link", "oneway": "yes", "bicycle": null, "lanes": "2", "maxspeed": "50"}, "Avenue Marsolais": {"highway": "residential", "maxspeed": null, "bicycle": null, "lanes": "2", "oneway": "yes"}, "Taxis et autobus": {"highway": "living_street", "maxspeed": null, "bicycle": null, "lanes": "1", "oneway": "yes"}, "Rue Pr\u00e9fontaine": {"highway": "residential", "maxspeed": null, "bicycle": null, "lanes": "1", "oneway": "yes"}, "52e Avenue": {"highway": "motorway_link", "maxspeed": null, "bicycle": null, "lanes": "1", "oneway": "yes"}, "Rue Malo": {"highway": "residential", "maxspeed": null, "bicycle": null, "lanes": "1", "oneway": "yes"}, "Rue Dubois": {"highway": "residential", "maxspeed": null, "bicycle": null, "lanes": "2", "oneway": "yes"}, "71e Avenue": {"highway": "residential", "maxspeed": null, "bicycle": null, "lanes": "1", "oneway": "yes"}, "Pont Jacques-Cartier": {"highway": "primary", "oneway": "yes", "bicycle": null, "lanes": "3", "maxspeed": "50"}, "Avenue Nelson": {"highway": "residential", "maxspeed": null, "bicycle": null, "lanes": "2", "oneway": "yes"}, "Rue Boucher": {"highway": "residential", "maxspeed": null, "bicycle": null, "lanes": "2", "oneway": "yes"}, "Rue Jubinville": {"highway": "residential", "maxspeed": null, "bicycle": null, "lanes": "1", "oneway": "yes"}, "Rue Briand": {"highway": "residential", "maxspeed": null, "bicycle": null, "lanes": "1", "oneway": "yes"}, "Chemin de la C\u00f4te-de-Liesse": {"highway": "motorway_link", "maxspeed": null, "bicycle": null, "lanes": "2", "oneway": "yes"}, "Autoroute Ville Marie Est": {"highway": "motorway", "maxspeed": null, "bicycle": null, "lanes": "2", "oneway": "yes"}, "Avenue du Midway": {"highway": "residential", "oneway": null, "bicycle": null, "lanes": "2", "maxspeed": "40"}, "Boulevard des Trinitaires": {"highway": "secondary", "maxspeed": null, "bicycle": null, "lanes": "2", "oneway": "yes"}, "Rue Diab": {"highway": "residential", "oneway": "no", "bicycle": null, "lanes": "2", "maxspeed": "50"}, "Autoroute du Souvenir (20 est, 138 est)": {"highway": "construction", "maxspeed": null, "bicycle": null, "lanes": "4", "oneway": "yes"}, "Rue Viau": {"highway": "secondary", "oneway": "yes", "bicycle": null, "lanes": null, "maxspeed": "50"}, "Avenue De Lorimier": {"highway": "secondary", "oneway": null, "bicycle": "yes", "lanes": "2", "maxspeed": "50"}, "Rue De Montigny": {"highway": "secondary", "maxspeed": null, "bicycle": null, "lanes": "1", "oneway": "yes"}, "Rue Sauv\u00e9 Est": {"highway": "secondary", "oneway": "yes", "bicycle": null, "lanes": "3", "maxspeed": "50"}, "Rue Saint-R\u00e9mi": {"highway": "residential", "maxspeed": null, "bicycle": null, "lanes": "2", "oneway": "no"}, "Rue Argyle": {"highway": "residential", "maxspeed": null, "bicycle": null, "lanes": "1", "oneway": "yes"}, "Avenue Lartigue": {"highway": "unclassified", "maxspeed": null, "bicycle": null, "lanes": "-1", "oneway": "yes"}, "Rue Tasse": {"highway": "residential", "maxspeed": null, "bicycle": null, "lanes": "2", "oneway": "yes"}, "Avenue Jean B\u00e9raud": {"highway": "residential", "maxspeed": null, "bicycle": null, "lanes": "2", "oneway": "yes"}, "Boulevard Cartier Ouest": {"highway": "tertiary", "maxspeed": null, "bicycle": null, "lanes": "2", "oneway": "yes"}, "Avenue Swail": {"highway": "residential", "oneway": "yes", "bicycle": null, "lanes": "1", "maxspeed": "30"}, "Rue de la Peltrie": {"highway": "residential", "maxspeed": null, "bicycle": null, "lanes": "1", "oneway": "yes"}, "Rue Raymond-Pelletier": {"highway": "residential", "maxspeed": null, "bicycle": null, "lanes": "2", "oneway": "yes"}, "Avenue Eliot": {"highway": "residential", "oneway": null, "bicycle": null, "lanes": "2", "maxspeed": "50"}, "Rue Boyer": {"highway": "residential", "oneway": "yes", "bicycle": null, "lanes": null, "maxspeed": "40"}, "20 ouest": {"highway": "construction", "maxspeed": null, "bicycle": null, "lanes": "3", "oneway": "yes"}, "Chemin Honor\u00e9 de Balzac": {"highway": "residential", "maxspeed": null, "bicycle": null, "lanes": "2", "oneway": "yes"}, "Boulevard Champlain": {"highway": "secondary", "oneway": null, "bicycle": null, "lanes": "4", "maxspeed": "40"}, "Rue Brock": {"highway": "residential", "maxspeed": null, "bicycle": null, "lanes": "2", "oneway": "yes"}, "Avenue Dunn": {"highway": "residential", "maxspeed": null, "bicycle": null, "lanes": "2", "oneway": "yes"}, "Rue Saint-Patrick": {"highway": "secondary", "oneway": "yes", "bicycle": null, "lanes": "1", "maxspeed": "50"}, "Pont M\u00e9d\u00e9ric-Martin": {"highway": "motorway", "oneway": "yes", "bicycle": null, "lanes": "4", "maxspeed": "100"}, "Boulevard des Laurentides": {"highway": "secondary", "maxspeed": null, "bicycle": null, "lanes": "2", "oneway": "yes"}, "Rue Lennox": {"highway": "residential", "maxspeed": null, "bicycle": null, "lanes": "1", "oneway": "yes"}, "Avenue Sunnyside": {"highway": "residential", "maxspeed": null, "bicycle": null, "lanes": "2", "oneway": "yes"}, "Avenue Starling": {"highway": "residential", "maxspeed": null, "bicycle": null, "lanes": "1", "oneway": "yes"}, "Rue Maisonneuve": {"highway": "residential", "maxspeed": null, "bicycle": null, "lanes": "2", "oneway": "yes"}, "Place de la Fonderie": {"highway": "residential", "oneway": "yes", "bicycle": null, "lanes": null, "maxspeed": "40"}, "Gladstone": {"highway": "residential", "maxspeed": null, "bicycle": null, "lanes": "2", "oneway": "yes"}, "Rue Mansfield": {"highway": "residential", "oneway": "yes", "bicycle": null, "lanes": "1", "maxspeed": "50"}, "Rue Saint-Germain": {"highway": "residential", "oneway": "yes", "bicycle": null, "lanes": "2", "maxspeed": "40"}, "Pont Louis-Bisson": {"highway": "motorway", "oneway": "yes", "bicycle": null, "lanes": null, "maxspeed": "100"}, "Rue Durocher": {"highway": "residential", "maxspeed": null, "bicycle": null, "lanes": "1", "oneway": "yes"}, "Rue Moffat": {"highway": "residential", "maxspeed": null, "bicycle": null, "lanes": "1", "oneway": "yes"}, "Boulevard Saint-Laurent": {"highway": "secondary", "oneway": "no", "bicycle": null, "lanes": "2", "maxspeed": "50"}, "Rue Jarry Ouest": {"highway": "secondary", "oneway": null, "bicycle": null, "lanes": "2", "maxspeed": "50"}, "Rue L\u00e9o-Pariseau": {"highway": "tertiary", "maxspeed": null, "bicycle": null, "lanes": "4", "oneway": "yes"}, "Rue Hamilton": {"highway": "residential", "maxspeed": null, "bicycle": null, "lanes": "2", "oneway": "yes"}, "Chemin Herron": {"highway": "motorway_link", "maxspeed": null, "bicycle": null, "lanes": "2", "oneway": "yes"}, "Boulevard Le Corbusier": {"highway": "tertiary", "maxspeed": null, "bicycle": "designated", "lanes": "3", "oneway": "yes"}, "Rue Prince-Arthur Ouest": {"highway": "tertiary", "maxspeed": null, "bicycle": null, "lanes": "1", "oneway": "yes"}, "Avenue Villeneuve": {"highway": "residential", "oneway": null, "bicycle": "designated", "lanes": "2", "maxspeed": null}, "Boulevard Pie-IX": {"highway": "primary", "oneway": "yes", "bicycle": null, "lanes": "2", "maxspeed": "50"}, "Rue Levert": {"highway": "residential", "oneway": null, "bicycle": null, "lanes": "2", "maxspeed": "30"}, "Boulevard Rom\u00e9o-Vachon Nord": {"highway": "tertiary", "maxspeed": null, "bicycle": null, "lanes": "2", "oneway": "yes"}, "Avenue Kellert": {"highway": "residential", "maxspeed": null, "bicycle": null, "lanes": "2", "oneway": "yes"}, "Rue Andras": {"highway": "residential", "maxspeed": null, "bicycle": null, "lanes": "2", "oneway": "yes"}, "Chemin du Bord-du-Lac\u2013Lakeshore": {"highway": "tertiary", "oneway": null, "bicycle": null, "lanes": "2", "maxspeed": "40"}, "78e Avenue": {"highway": "residential", "maxspeed": null, "bicycle": null, "lanes": "2", "oneway": "yes"}, "Fleet Street": {"highway": "tertiary", "oneway": "yes", "bicycle": null, "lanes": "2", "maxspeed": "40"}, "Boulevard Henri-Bourassa Est": {"highway": "secondary", "maxspeed": null, "bicycle": null, "lanes": "3", "oneway": "yes"}, "Rue Panet": {"highway": "residential", "maxspeed": null, "bicycle": null, "lanes": "1", "oneway": "yes"}, "Chemin de la C\u00f4te-Sainte-Catherine": {"highway": "secondary", "oneway": null, "bicycle": null, "lanes": "4", "maxspeed": "50"}, "Boulevard de Montr\u00e9al-Toronto": {"highway": "secondary", "maxspeed": null, "bicycle": null, "lanes": "2", "oneway": "yes"}, "Rue D\u00e9z\u00e9ry": {"highway": "residential", "maxspeed": null, "bicycle": null, "lanes": "1", "oneway": "yes"}, "Boulevard Strathmore": {"highway": "residential", "maxspeed": null, "bicycle": null, "lanes": "1", "oneway": "yes"}, "Rue Berlioz": {"highway": "residential", "oneway": "no", "bicycle": null, "lanes": "2", "maxspeed": "30"}, "Rue W. Alfred-Thessereault": {"highway": "residential", "maxspeed": null, "bicycle": null, "lanes": "1", "oneway": "yes"}, "Croissant Holon": {"highway": "residential", "maxspeed": null, "bicycle": null, "lanes": "1", "oneway": "yes"}, "Avenue Wiseman": {"highway": "residential", "maxspeed": null, "bicycle": null, "lanes": "1", "oneway": "yes"}, "Avenue Pierre de Coubertin": {"highway": "tertiary", "oneway": "yes", "bicycle": null, "lanes": null, "maxspeed": "40"}, "Place Louis-R.-Renaud": {"highway": "road", "oneway": null, "bicycle": "yes", "lanes": "2", "maxspeed": null}, "Rue Egan": {"highway": "residential", "maxspeed": null, "bicycle": null, "lanes": "1", "oneway": "yes"}, "Rue Allion": {"highway": "residential", "oneway": null, "bicycle": null, "lanes": "2", "maxspeed": "30"}, "Avenue Earnscliffe": {"highway": "residential", "maxspeed": null, "bicycle": "yes", "lanes": "1", "oneway": "yes"}, "Boulevard Jean-Baptiste-Deschamps": {"highway": "tertiary", "maxspeed": null, "bicycle": null, "lanes": "2", "oneway": "yes"}, "Rue Edna": {"highway": "residential", "maxspeed": null, "bicycle": null, "lanes": "1", "oneway": "yes"}, "Rue Resther": {"highway": "residential", "maxspeed": null, "bicycle": null, "lanes": "1", "oneway": "yes"}, "Avenue Mountain Sights": {"highway": "residential", "maxspeed": null, "bicycle": null, "lanes": "2", "oneway": "no"}, "Avenue Metcalfe": {"highway": "residential", "oneway": null, "bicycle": null, "lanes": "2", "maxspeed": "30"}, "Chemin de la C\u00f4te-Des-Neiges": {"highway": "secondary", "oneway": "yes", "bicycle": null, "lanes": "2", "maxspeed": "50"}, "Rue Galt": {"highway": "secondary", "oneway": "yes", "bicycle": "designated", "lanes": null, "maxspeed": "30"}, "Boulevard Guy-Bouchard": {"highway": "residential", "maxspeed": null, "bicycle": null, "lanes": "1", "oneway": "yes"}, "Chemin Picquet": {"highway": "residential", "maxspeed": null, "bicycle": null, "lanes": "2", "oneway": "yes"}, "Boulevard Stuart-Graham": {"highway": "living_street", "maxspeed": null, "bicycle": null, "lanes": "2", "oneway": "yes"}, "Rue Desrochers": {"highway": "residential", "maxspeed": null, "bicycle": null, "lanes": "2", "oneway": "yes"}, "Rue de Rozel": {"highway": "residential", "maxspeed": null, "bicycle": null, "lanes": "1", "oneway": "yes"}, "Rue du Square Victoria": {"highway": "tertiary", "maxspeed": null, "bicycle": null, "lanes": "3", "oneway": "yes"}, "Avenue de Trafalgar": {"highway": "residential", "oneway": null, "bicycle": "yes", "lanes": "2", "maxspeed": null}, "Boulevard Lebeau": {"highway": "residential", "maxspeed": null, "bicycle": null, "lanes": "1", "oneway": "yes"}, "Boulevard McMillan": {"highway": "tertiary", "maxspeed": null, "bicycle": null, "lanes": "2", "oneway": "yes"}, "Rue Ryde": {"highway": "residential", "maxspeed": null, "bicycle": null, "lanes": "1", "oneway": "yes"}, "Chemin du Bois-Franc": {"highway": "residential", "oneway": "no", "bicycle": null, "lanes": "2", "maxspeed": "50"}, "Tunnel Atwater": {"highway": "secondary", "maxspeed": null, "bicycle": null, "lanes": "2", "oneway": "yes"}, "Rue Etingin": {"highway": "residential", "maxspeed": null, "bicycle": null, "lanes": "2", "oneway": "no"}, "Rue De Bleury": {"highway": "secondary", "oneway": "yes", "bicycle": null, "lanes": "2", "maxspeed": "50"}, "Rue Philippe-Girard": {"highway": "residential", "oneway": "yes", "bicycle": null, "lanes": null, "maxspeed": "40"}, "Place Madeleine-Dansereau": {"highway": "residential", "oneway": "yes", "bicycle": null, "lanes": null, "maxspeed": "40"}, "Rue Terry-Fox": {"highway": "residential", "maxspeed": null, "bicycle": null, "lanes": "2", "oneway": "yes"}, "Boulevard Quinn": {"highway": "tertiary", "oneway": "yes", "bicycle": null, "lanes": null, "maxspeed": "40"}, "Lombard Crescent": {"highway": "tertiary", "maxspeed": null, "bicycle": null, "lanes": "2", "oneway": "yes"}, "Rue de Saint Real": {"highway": "residential", "maxspeed": null, "bicycle": null, "lanes": "2", "oneway": "yes"}, "11e Avenue": {"highway": "residential", "maxspeed": null, "bicycle": null, "lanes": "2", "oneway": "yes"}, "Rue de Quimper": {"highway": "tertiary", "maxspeed": null, "bicycle": null, "lanes": "1", "oneway": "yes"}, "Avenue Plamondon": {"highway": "residential", "maxspeed": null, "bicycle": null, "lanes": "1", "oneway": "yes"}, "Circuit Gilles Villeneuve": {"highway": "raceway", "oneway": "yes", "bicycle": null, "lanes": null, "maxspeed": "30"}, "Rue Halpern": {"highway": "tertiary", "oneway": "no", "bicycle": null, "lanes": "2", "maxspeed": "50"}, "Rue Andr\u00e9-Pr\u00e9vost": {"highway": "unclassified", "maxspeed": null, "bicycle": null, "lanes": "2", "oneway": "yes"}, "Boulevard Le Carrefour": {"highway": "tertiary", "oneway": "yes", "bicycle": null, "lanes": "3", "maxspeed": "50"}}